PathFileType	4	(X/Y/Z)	/Users/guillermo/Documents/TESIS/Procesamiento_videos/data/sports2d_raw/Cam1_rep/sujeto01_caml/sujeto01_rep09_camL_Sports2D/sujeto01_rep09_camL_Sports2D_px_person01.trc
DataRate	CameraRate	NumFrames	NumMarkers	Units	OrigDataRate	OrigDataStartFrame	OrigNumFrames
120.0	120.0	68	22	m	120.0	0	68
Frame#	Time	Hip			RHip			RKnee			RAnkle			RBigToe			RSmallToe			RHeel			LHip			LKnee			LAnkle			LBigToe			LSmallToe			LHeel			Neck			Head			Nose			RShoulder			RElbow			RWrist			LShoulder			LElbow			LWrist			
		X1	Y1	Z1	X2	Y2	Z2	X3	Y3	Z3	X4	Y4	Z4	X5	Y5	Z5	X6	Y6	Z6	X7	Y7	Z7	X8	Y8	Z8	X9	Y9	Z9	X10	Y10	Z10	X11	Y11	Z11	X12	Y12	Z12	X13	Y13	Z13	X14	Y14	Z14	X15	Y15	Z15	X16	Y16	Z16	X17	Y17	Z17	X18	Y18	Z18	X19	Y19	Z19	X20	Y20	Z20	X21	Y21	Z21	X22	Y22	Z22
0	0.0	1044.500244140625	388.4615478515625	0.0	1040.8271484375	392.1346435546875	0.0	1007.769287109375	480.2889404296875	0.0	1015.115478515625	577.6259765625	0.0	994.9134521484375	607.0107421875	0.0	996.75	601.5010986328125	0.0	1029.807861328125	590.4818115234375	0.0	1046.3367919921875	388.4615478515625	0.0	1051.846435546875	496.81787109375	0.0	1094.0870361328125	601.5010986328125	0.0	1068.3753662109375	652.9244384765625	0.0	1079.3946533203125	651.087890625	0.0	1110.615966796875	610.683837890625	0.0	1009.6058349609375	259.9031982421875	0.0	1013.2789306640625	219.4991455078125	0.0	994.9134521484375	237.8646240234375	0.0	1015.115478515625	294.797607421875	0.0	1007.769287109375	366.4229736328125	0.0	958.1824951171875	340.7113037109375	0.0	1002.2596435546875	258.066650390625	0.0	967.365234375	182.7681884765625	0.0	937.98046875	118.489013671875	0.0
1	0.008333333333333333	1044.500244140625	388.4615478515625	0.0	1040.8271484375	392.1346435546875	0.0	1007.769287109375	480.2889404296875	0.0	1015.115478515625	577.6259765625	0.0	994.9134521484375	607.0107421875	0.0	996.75	601.5010986328125	0.0	1029.807861328125	590.4818115234375	0.0	1046.3367919921875	388.4615478515625	0.0	1051.846435546875	496.81787109375	0.0	1094.0870361328125	601.5010986328125	0.0	1068.3753662109375	652.9244384765625	0.0	1079.3946533203125	651.087890625	0.0	1110.615966796875	610.683837890625	0.0	1009.6058349609375	259.9031982421875	0.0	1013.2789306640625	219.4991455078125	0.0	994.9134521484375	237.8646240234375	0.0	1015.115478515625	294.797607421875	0.0	1007.769287109375	366.4229736328125	0.0	958.1824951171875	340.7113037109375	0.0	1002.2596435546875	258.066650390625	0.0	967.365234375	182.7681884765625	0.0	937.98046875	118.489013671875	0.0
2	0.016666666666666666	1046.0672607421875	390.3475341796875	0.0	1038.5306396484375	392.231689453125	0.0	1010.268310546875	486.439453125	0.0	1006.5	586.2996826171875	0.0	974.4693603515625	616.4461669921875	0.0	978.2376708984375	608.9095458984375	0.0	1017.804931640625	601.3729248046875	0.0	1042.2989501953125	388.46337890625	0.0	1042.2989501953125	492.0919189453125	0.0	1089.40283203125	601.3729248046875	0.0	1066.79296875	656.013427734375	0.0	1074.32958984375	650.3609619140625	0.0	1104.47607421875	605.1412353515625	0.0	1006.5	256.572509765625	0.0	1006.5	217.0052490234375	0.0	983.89013671875	235.8468017578125	0.0	1015.9207763671875	288.6031494140625	0.0	1012.1524658203125	356.4327392578125	0.0	963.1644287109375	337.5911865234375	0.0	997.0792236328125	256.572509765625	0.0	953.74365234375	190.6270751953125	0.0	921.7130126953125	130.3341064453125	0.0
3	0.025	1042.037841796875	395.3228759765625	0.0	1040.1024169921875	399.1937255859375	0.0	1005.2647705078125	486.287841796875	0.0	999.45849609375	584.9945068359375	0.0	970.4271240234375	615.9613037109375	0.0	970.4271240234375	610.155029296875	0.0	1009.1356201171875	598.54248046875	0.0	1040.1024169921875	393.387451171875	0.0	1038.1669921875	495.9649658203125	0.0	1080.746337890625	600.4779052734375	0.0	1057.521240234375	656.605224609375	0.0	1065.262939453125	654.6697998046875	0.0	1100.1005859375	610.155029296875	0.0	1007.2001953125	265.6494140625	0.0	1001.3939208984375	225.0054931640625	0.0	980.104248046875	248.2305908203125	0.0	1011.071044921875	298.5516357421875	0.0	1007.2001953125	368.2269287109375	0.0	964.620849609375	345.0018310546875	0.0	995.587646484375	259.8431396484375	0.0	951.0728759765625	205.6512451171875	0.0	918.170654296875	163.0718994140625	0.0
4	0.03333333333333333	1042.6862182617188	397.72247314453125	0.0	1040.8853759765625	401.32415771484375	0.0	1004.8685302734375	491.36627197265625	0.0	986.860107421875	583.209228515625	0.0	965.25	613.8235473632812	0.0	965.25	608.4210205078125	0.0	995.8643188476562	597.615966796875	0.0	1037.28369140625	394.12078857421875	0.0	1035.4828491210938	502.17132568359375	0.0	1067.8980102539062	603.0184936523438	0.0	1044.487060546875	655.242919921875	0.0	1053.4912719726562	655.242919921875	0.0	1087.707275390625	613.8235473632812	0.0	1001.266845703125	268.06182861328125	0.0	994.0634765625	226.6424560546875	0.0	976.0550537109375	248.2525634765625	0.0	1006.6693725585938	300.47698974609375	0.0	1006.6693725585938	370.7098388671875	0.0	961.6483154296875	352.701416015625	0.0	992.2626342773438	262.6593017578125	0.0	943.639892578125	210.43487548828125	0.0	900.419677734375	170.81634521484375	0.0
5	0.041666666666666664	1040.2646484375	394.54229736328125	0.0	1038.4674682617188	399.933837890625	0.0	1002.5238647460938	496.9815673828125	0.0	982.7548828125	588.6377563476562	0.0	961.188720703125	613.7982788085938	0.0	961.188720703125	608.40673828125	0.0	991.7407836914062	601.218017578125	0.0	1036.6702880859375	394.54229736328125	0.0	1031.2787475585938	505.96746826171875	0.0	1060.0336303710938	610.2039184570312	0.0	1033.075927734375	658.727783203125	0.0	1043.8590087890625	660.5249633789062	0.0	1079.8026123046875	620.9869995117188	0.0	1002.5238647460938	268.73968505859375	0.0	991.7407836914062	229.20172119140625	0.0	975.566162109375	254.36224365234375	0.0	1015.1041259765625	301.08892822265625	0.0	1011.509765625	374.7733154296875	0.0	961.188720703125	362.19305419921875	0.0	988.1464233398438	263.34814453125	0.0	934.2310180664062	214.82427978515625	0.0	880.3156127929688	177.08349609375	0.0
6	0.05	1039.23486328125	398.063232421875	0.0	1034.214111328125	404.757568359375	0.0	1002.416015625	501.825439453125	0.0	977.312255859375	588.851806640625	0.0	952.20849609375	612.281982421875	0.0	953.882080078125	605.587646484375	0.0	984.006591796875	605.587646484375	0.0	1039.23486328125	398.063232421875	0.0	1024.172607421875	508.519775390625	0.0	1052.62353515625	610.6083984375	0.0	1027.519775390625	659.142333984375	0.0	1037.561279296875	657.46875	0.0	1071.032958984375	622.323486328125	0.0	994.048095703125	270.870849609375	0.0	985.68017578125	237.399169921875	0.0	967.270751953125	262.5029296875	0.0	1009.1103515625	299.32177734375	0.0	1009.1103515625	372.95947265625	0.0	963.923583984375	364.591552734375	0.0	984.006591796875	267.523681640625	0.0	932.12548828125	229.03125	0.0	885.26513671875	200.580322265625	0.0
7	0.058333333333333334	1035.361083984375	401.1859130859375	0.0	1029.1025390625	407.4444580078125	0.0	994.6805419921875	498.193359375	0.0	969.6463623046875	592.071533203125	0.0	943.0475463867188	613.9764404296875	0.0	944.6121826171875	607.7178955078125	0.0	979.0341796875	607.7178955078125	0.0	1038.4903564453125	401.1859130859375	0.0	1022.843994140625	510.71044921875	0.0	1047.878173828125	620.2349853515625	0.0	1021.2793579101562	664.0447998046875	0.0	1032.2318115234375	662.4801635742188	0.0	1066.65380859375	629.622802734375	0.0	993.1159057617188	271.32110595703125	0.0	980.5988159179688	238.4637451171875	0.0	961.8231811523438	263.4979248046875	0.0	1010.326904296875	299.48455810546875	0.0	1013.4561767578125	377.71636962890625	0.0	966.51708984375	376.1517333984375	0.0	980.5988159179688	269.7564697265625	0.0	928.9658203125	240.02838134765625	0.0	888.2852783203125	221.25274658203125	0.0
8	0.06666666666666667	1032.498046875	405.059326171875	0.0	1024.752685546875	408.157470703125	0.0	992.22216796875	505.7490234375	0.0	967.43701171875	597.144287109375	0.0	948.84814453125	620.38037109375	0.0	948.84814453125	612.635009765625	0.0	975.182373046875	611.0859375	0.0	1037.145263671875	403.51025390625	0.0	1018.556396484375	511.9453125	0.0	1041.79248046875	623.478515625	0.0	1010.81103515625	668.401611328125	0.0	1023.20361328125	668.401611328125	0.0	1058.832275390625	632.77294921875	0.0	990.673095703125	273.38818359375	0.0	978.280517578125	240.857666015625	0.0	958.142578125	264.09375	0.0	1007.712890625	299.722412109375	0.0	1015.458251953125	377.176025390625	0.0	970.53515625	389.568603515625	0.0	979.82958984375	273.38818359375	0.0	925.612060546875	250.152099609375	0.0	885.336181640625	236.21044921875	0.0
9	0.075	1027.4375610351562	409.49688720703125	0.0	1022.7930908203125	411.0450439453125	0.0	987.1854858398438	508.57891845703125	0.0	962.4149780273438	598.3720092773438	0.0	940.7407836914062	615.4017333984375	0.0	942.2889404296875	609.2091064453125	0.0	970.15576171875	610.7572631835938	0.0	1033.6301879882812	407.94873046875	0.0	1011.9559936523438	516.3197021484375	0.0	1036.7265014648438	627.7869873046875	0.0	1004.2152099609375	669.5872192382812	0.0	1013.504150390625	669.5872192382812	0.0	1053.7562255859375	637.075927734375	0.0	985.6373291015625	276.35540771484375	0.0	974.8002319335938	243.8441162109375	0.0	953.1260375976562	268.6146240234375	0.0	1008.8596801757812	301.12591552734375	0.0	1030.5338745117188	367.6966552734375	0.0	1013.504150390625	442.0081787109375	0.0	974.8002319335938	276.35540771484375	0.0	912.8739624023438	256.2293701171875	0.0	861.7847900390625	250.0367431640625	0.0
10	0.08333333333333333	1028.5233764648438	411.2940673828125	0.0	1022.5870971679688	417.2303466796875	0.0	979.549072265625	513.6948852539062	0.0	955.803955078125	601.2550048828125	0.0	923.1544189453125	614.6116333007812	0.0	923.1544189453125	607.1912841796875	0.0	960.2561645507812	616.095703125	0.0	1028.5233764648438	412.77813720703125	0.0	1012.1986083984375	521.115234375	0.0	1030.0074462890625	632.4204711914062	0.0	992.9057006835938	671.0062866210938	0.0	1007.7463989257812	672.4903564453125	0.0	1043.3640747070312	642.8089599609375	0.0	984.0012817382812	277.727783203125	0.0	970.6446533203125	248.04638671875	0.0	948.3836059570312	279.21185302734375	0.0	1009.23046875	302.95697021484375	0.0	1027.039306640625	366.77197265625	0.0	1001.8101196289062	429.1029052734375	0.0	966.1924438476562	277.727783203125	0.0	894.9570922851562	268.8233642578125	0.0	832.6261596679688	262.8870849609375	0.0
11	0.09166666666666666	1027.133056640625	413.887939453125	0.0	1022.79345703125	418.2275390625	0.0	977.950927734375	516.591796875	0.0	954.806396484375	603.3837890625	0.0	921.5361328125	617.84912109375	0.0	924.42919921875	612.06298828125	0.0	959.14599609375	617.84912109375	0.0	1024.239990234375	415.33447265625	0.0	1008.328125	522.3779296875	0.0	1025.6865234375	636.654052734375	0.0	986.630126953125	674.263916015625	0.0	999.64892578125	677.156982421875	0.0	1037.2587890625	648.226318359375	0.0	982.29052734375	282.25341796875	0.0	967.8251953125	251.876220703125	0.0	947.57373046875	282.25341796875	0.0	1011.22119140625	305.39794921875	0.0	1030.026123046875	370.491943359375	0.0	996.755859375	419.674072265625	0.0	964.93212890625	283.699951171875	0.0	894.052001953125	277.913818359375	0.0	824.618408203125	277.913818359375	0.0
12	0.1	1025.2941284179688	414.4248046875	0.0	1026.4962158203125	418.03106689453125	0.0	976.008544921875	508.1876220703125	0.0	950.7647094726562	601.950439453125	0.0	926.7229614257812	617.5775756835938	0.0	929.1271362304688	616.37548828125	0.0	957.9772338867188	616.37548828125	0.0	1019.28369140625	415.62689208984375	0.0	1003.6565551757812	526.2189331054688	0.0	1020.4857788085938	636.8109741210938	0.0	989.2315063476562	656.0443725585938	0.0	1001.2523803710938	659.650634765625	0.0	1030.1024780273438	646.4276733398438	0.0	979.6148071289062	284.599365234375	0.0	963.9876708984375	256.95135498046875	0.0	945.9563598632812	290.60980224609375	0.0	1009.6669921875	312.24737548828125	0.0	1028.900390625	381.96844482421875	0.0	986.8273315429688	437.26446533203125	0.0	962.7855834960938	283.39727783203125	0.0	894.2666015625	289.40771484375	0.0	834.1622314453125	301.4285888671875	0.0
13	0.10833333333333334	1022.23828125	416.3734130859375	0.0	1029.8389892578125	418.5450439453125	0.0	972.290771484375	513.010986328125	0.0	946.231201171875	608.562744140625	0.0	915.828369140625	624.8499755859375	0.0	922.34326171875	620.5067138671875	0.0	954.917724609375	620.5067138671875	0.0	1014.6375732421875	417.459228515625	0.0	998.350341796875	529.2982177734375	0.0	1014.6375732421875	638.965576171875	0.0	985.320556640625	669.368408203125	0.0	995.0928955078125	671.5400390625	0.0	1023.3240966796875	649.82373046875	0.0	978.8056640625	287.161376953125	0.0	962.5184326171875	261.101806640625	0.0	944.0595703125	290.4188232421875	0.0	1010.2943115234375	312.1351318359375	0.0	1030.9248046875	384.884765625	0.0	989.663818359375	441.34716796875	0.0	961.4326171875	288.2471923828125	0.0	889.768798828125	302.36279296875	0.0	835.47802734375	318.6500244140625	0.0
14	0.11666666666666667	1019.9765625	420.75	0.0	1030.5234375	424.96875	0.0	970.40625	526.21875	0.0	945.09375	614.8125	0.0	913.453125	630.6328125	0.0	921.890625	626.4140625	0.0	951.421875	627.46875	0.0	1006.265625	421.8046875	0.0	996.7734375	532.546875	0.0	1009.4296875	640.125	0.0	979.8984375	668.6015625	0.0	986.2265625	672.8203125	0.0	1017.8671875	653.8359375	0.0	977.7890625	291.0234375	0.0	963.0234375	265.7109375	0.0	944.0390625	297.3515625	0.0	1010.484375	316.3359375	0.0	1033.6875	383.8359375	0.0	999.9375	417.5859375	0.0	958.8046875	292.078125	0.0	891.3046875	315.28125	0.0	835.40625	335.3203125	0.0
15	0.125	1015.751220703125	423.9078369140625	0.0	1015.751220703125	428.9688720703125	0.0	966.4061279296875	525.1285400390625	0.0	948.6925048828125	616.2271728515625	0.0	914.530517578125	635.2060546875	0.0	918.3262939453125	630.14501953125	0.0	956.2840576171875	627.614501953125	0.0	1008.15966796875	423.9078369140625	0.0	995.507080078125	537.7811279296875	0.0	1003.0986328125	647.858642578125	0.0	968.9366455078125	676.9595947265625	0.0	979.0587158203125	678.224853515625	0.0	1014.4859619140625	655.4501953125	0.0	973.9976806640625	297.3819580078125	0.0	957.54931640625	268.281005859375	0.0	938.5704345703125	304.9735107421875	0.0	1005.629150390625	321.421875	0.0	1020.812255859375	392.2763671875	0.0	989.1807861328125	453.0087890625	0.0	957.54931640625	298.647216796875	0.0	894.286376953125	325.2176513671875	0.0	839.8802490234375	351.7880859375	0.0
16	0.13333333333333333	1011.0831298828125	425.87255859375	0.0	1014.72509765625	429.5145263671875	0.0	962.5235595703125	525.419677734375	0.0	946.74169921875	618.8968505859375	0.0	915.177978515625	635.8927001953125	0.0	920.033935546875	629.82275390625	0.0	955.2396240234375	628.6087646484375	0.0	1003.7991943359375	427.0865478515625	0.0	991.6593017578125	539.987548828125	0.0	998.9432373046875	651.674560546875	0.0	964.9515380859375	677.1683349609375	0.0	974.6634521484375	679.5963134765625	0.0	1009.869140625	661.386474609375	0.0	972.2354736328125	299.61767578125	0.0	956.45361328125	274.1239013671875	0.0	938.2437744140625	312.9715576171875	0.0	1005.01318359375	326.325439453125	0.0	1022.009033203125	394.308837890625	0.0	985.58935546875	455.00830078125	0.0	952.8116455078125	303.2596435546875	0.0	894.5401611328125	340.893310546875	0.0	841.1246337890625	370.029052734375	0.0
17	0.14166666666666666	1006.5322265625	431.876953125	0.0	1015.453125	434.42578125	0.0	964.4765625	535.1044921875	0.0	938.98828125	629.4111328125	0.0	917.3232421875	645.978515625	0.0	922.4208984375	640.880859375	0.0	945.3603515625	643.4296875	0.0	1000.16015625	430.6025390625	0.0	984.8671875	546.57421875	0.0	993.7880859375	659.9970703125	0.0	961.927734375	689.30859375	0.0	972.123046875	689.30859375	0.0	1007.806640625	667.6435546875	0.0	969.57421875	304.435546875	0.0	953.0068359375	277.6728515625	0.0	935.1650390625	315.9052734375	0.0	1002.708984375	327.375	0.0	1016.7275390625	393.64453125	0.0	983.5927734375	458.6396484375	0.0	953.0068359375	308.2587890625	0.0	895.658203125	351.5888671875	0.0	843.4072265625	383.44921875	0.0
18	0.15	1003.6490478515625	433.76422119140625	0.0	1014.919189453125	438.27227783203125	0.0	960.822509765625	537.4495239257812	0.0	934.9011840820312	636.6267700195312	0.0	913.4879150390625	659.1670532226562	0.0	921.3770141601562	655.7860107421875	0.0	938.2822265625	652.4049682617188	0.0	992.37890625	434.8912353515625	0.0	982.2357788085938	550.9736938476562	0.0	988.9978637695312	662.548095703125	0.0	961.9495239257812	695.2315063476562	0.0	968.7116088867188	695.2315063476562	0.0	1000.2680053710938	673.8182373046875	0.0	968.7116088867188	309.79266357421875	0.0	948.4253540039062	283.871337890625	0.0	933.774169921875	321.06280517578125	0.0	1004.7760620117188	335.7139892578125	0.0	1014.919189453125	412.3509521484375	0.0	1016.0462036132812	485.60687255859375	0.0	951.806396484375	313.1737060546875	0.0	898.8367309570312	359.38128662109375	0.0	852.629150390625	395.44573974609375	0.0
19	0.15833333333333333	999.6470947265625	441.37646484375	0.0	1012.2813720703125	443.482177734375	0.0	961.7442626953125	546.662109375	0.0	932.2642822265625	642.4720458984375	0.0	904.8900146484375	663.5291748046875	0.0	916.471435546875	661.4234619140625	0.0	936.4757080078125	656.1591796875	0.0	985.9599609375	440.3236083984375	0.0	979.642822265625	551.9263916015625	0.0	987.0128173828125	668.79345703125	0.0	957.5328369140625	705.6434326171875	0.0	965.9556884765625	704.590576171875	0.0	997.5413818359375	681.427734375	0.0	967.008544921875	315.03369140625	0.0	948.05712890625	289.76513671875	0.0	929.105712890625	323.45654296875	0.0	1004.911376953125	343.4608154296875	0.0	1022.8099365234375	419.2664794921875	0.0	1025.968505859375	486.6492919921875	0.0	949.1099853515625	318.1922607421875	0.0	901.7314453125	367.676513671875	0.0	859.6171875	408.7379150390625	0.0
20	0.16666666666666666	992.158447265625	447.4716796875	0.0	1006.872802734375	448.522705078125	0.0	962.729736328125	554.67626953125	0.0	930.14794921875	650.319580078125	0.0	898.6171875	679.748291015625	0.0	904.92333984375	675.544189453125	0.0	934.35205078125	668.18701171875	0.0	980.59716796875	446.420654296875	0.0	976.39306640625	557.829345703125	0.0	982.69921875	672.39111328125	0.0	950.117431640625	712.330078125	0.0	959.57666015625	711.279052734375	0.0	993.20947265625	685.00341796875	0.0	965.8828125	320.297607421875	0.0	946.96435546875	294.02197265625	0.0	928.0458984375	324.501708984375	0.0	1003.7197265625	348.67529296875	0.0	1024.740234375	425.400146484375	0.0	1029.995361328125	492.665771484375	0.0	949.06640625	323.45068359375	0.0	905.974365234375	376.001953125	0.0	866.035400390625	418.04296875	0.0
21	0.175	990.2550659179688	452.5909423828125	0.0	1005.6441650390625	454.95849609375	0.0	963.0281982421875	557.9470825195312	0.0	931.0662231445312	652.6492309570312	0.0	897.9204711914062	684.6112060546875	0.0	909.7582397460938	684.6112060546875	0.0	935.8013305664062	670.4058837890625	0.0	978.4172973632812	452.5909423828125	0.0	973.6821899414062	562.6821899414062	0.0	977.2335205078125	675.1409912109375	0.0	947.6390991210938	713.0218505859375	0.0	955.925537109375	710.654296875	0.0	985.5199584960938	684.6112060546875	0.0	963.0281982421875	327.110595703125	0.0	940.5364379882812	301.0675048828125	0.0	926.3311157226562	335.39703369140625	0.0	999.7252807617188	355.521240234375	0.0	1025.7683715820312	434.83428955078125	0.0	1034.0548095703125	495.2069091796875	0.0	947.6390991210938	328.29437255859375	0.0	910.9420166015625	385.11566162109375	0.0	871.8773803710938	426.5478515625	0.0
22	0.18333333333333332	987.73681640625	456.18603515625	0.0	1003.5845947265625	461.4686279296875	0.0	957.0977783203125	561.837890625	0.0	930.684814453125	664.3201904296875	0.0	895.8197021484375	687.5635986328125	0.0	905.328369140625	684.39404296875	0.0	935.9674072265625	679.1114501953125	0.0	974.0020751953125	457.2425537109375	0.0	968.719482421875	568.177001953125	0.0	972.945556640625	683.3375244140625	0.0	945.47607421875	724.541748046875	0.0	948.6456298828125	723.4852294921875	0.0	983.5107421875	693.9027099609375	0.0	962.38037109375	332.5733642578125	0.0	939.136962890625	307.2169189453125	0.0	926.458740234375	342.08203125	0.0	997.2454833984375	363.21240234375	0.0	1024.7149658203125	439.28173828125	0.0	1034.2236328125	501.6163330078125	0.0	944.4195556640625	333.6298828125	0.0	913.780517578125	390.681884765625	0.0	875.745849609375	441.394775390625	0.0
23	0.19166666666666665	986.94140625	461.373046875	0.0	1001.501953125	467.61328125	0.0	951.580078125	566.4169921875	0.0	929.7392578125	670.4208984375	0.0	893.337890625	700.58203125	0.0	899.578125	695.3818359375	0.0	937.01953125	687.0615234375	0.0	971.3408203125	461.373046875	0.0	966.140625	571.6171875	0.0	970.30078125	686.021484375	0.0	937.01953125	723.462890625	0.0	943.259765625	723.462890625	0.0	980.701171875	699.5419921875	0.0	956.7802734375	336.568359375	0.0	937.01953125	312.6474609375	0.0	925.5791015625	350.0888671875	0.0	991.1015625	362.5693359375	0.0	1023.3427734375	440.572265625	0.0	1033.7431640625	505.0546875	0.0	942.2197265625	338.6484375	0.0	918.298828125	397.9306640625	0.0	883.9775390625	449.9326171875	0.0
24	0.2	983.1434326171875	470.72406005859375	0.0	998.8401489257812	475.956298828125	0.0	948.6106567382812	574.3223876953125	0.0	928.7281494140625	676.874267578125	0.0	894.1953735351562	703.0354614257812	0.0	900.4740600585938	699.8961181640625	0.0	933.9603881835938	691.5245361328125	0.0	967.4467163085938	470.72406005859375	0.0	962.2144775390625	581.6475219726562	0.0	964.307373046875	694.6638793945312	0.0	932.9139404296875	726.0573120117188	0.0	940.2390747070312	727.103759765625	0.0	974.7718505859375	706.1748046875	0.0	952.7964477539062	342.010986328125	0.0	933.9603881835938	317.94268798828125	0.0	920.3565673828125	354.568359375	0.0	988.3756713867188	369.2186279296875	0.0	1020.8155517578125	444.5628662109375	0.0	1033.3729248046875	510.48907470703125	0.0	940.2390747070312	344.1038818359375	0.0	922.449462890625	403.75140380859375	0.0	890.0095825195312	458.16668701171875	0.0
25	0.20833333333333334	980.7509765625	477.703125	0.0	997.3916015625	481.86328125	0.0	952.669921875	575.466796875	0.0	931.869140625	682.5908203125	0.0	900.66796875	704.431640625	0.0	906.908203125	701.3115234375	0.0	934.9892578125	696.111328125	0.0	964.1103515625	476.6630859375	0.0	957.8701171875	584.8271484375	0.0	959.9501953125	699.2314453125	0.0	931.869140625	730.4326171875	0.0	937.0693359375	730.4326171875	0.0	969.310546875	709.6318359375	0.0	950.58984375	349.7783203125	0.0	930.8291015625	323.77734375	0.0	918.3486328125	362.2587890625	0.0	985.951171875	375.779296875	0.0	1020.2724609375	450.662109375	0.0	1032.7529296875	514.1044921875	0.0	938.109375	349.7783203125	0.0	927.708984375	405.9404296875	0.0	895.4677734375	463.142578125	0.0
26	0.21666666666666667	974.561279296875	485.05078125	0.0	992.4287109375	487.15283203125	0.0	950.3876953125	583.84716796875	0.0	929.3671875	687.898681640625	0.0	898.887451171875	704.715087890625	0.0	907.295654296875	702.613037109375	0.0	936.724365234375	697.35791015625	0.0	958.7958984375	481.897705078125	0.0	953.540771484375	590.1533203125	0.0	957.744873046875	707.8681640625	0.0	922.010009765625	741.5009765625	0.0	930.418212890625	740.449951171875	0.0	969.30615234375	718.37841796875	0.0	948.28564453125	356.82568359375	0.0	926.214111328125	331.60107421875	0.0	914.65283203125	371.5400390625	0.0	984.0205078125	384.15234375	0.0	1018.704345703125	456.673095703125	0.0	1031.316650390625	520.78564453125	0.0	937.775390625	355.774658203125	0.0	933.5712890625	409.376953125	0.0	900.989501953125	471.387451171875	0.0
27	0.225	971.3508911132812	488.1280517578125	0.0	987.322265625	492.3870849609375	0.0	952.1852416992188	590.3448486328125	0.0	941.5376586914062	696.8206787109375	0.0	905.3358764648438	727.6986694335938	0.0	912.7891845703125	720.245361328125	0.0	953.25	708.5330200195312	0.0	955.3795166015625	485.99853515625	0.0	950.0557250976562	594.6038818359375	0.0	951.1204833984375	704.2739868164062	0.0	911.7244262695312	738.3462524414062	0.0	919.177734375	737.281494140625	0.0	962.8328247070312	718.1158447265625	0.0	944.73193359375	363.55133056640625	0.0	924.5015258789062	337.99713134765625	0.0	911.7244262695312	376.32843017578125	0.0	981.9984741210938	392.2998046875	0.0	1017.135498046875	461.50909423828125	0.0	1029.91259765625	526.4593505859375	0.0	936.2138671875	361.42181396484375	0.0	935.1491088867188	415.7244873046875	0.0	904.2711181640625	478.54522705078125	0.0
28	0.23333333333333334	967.470703125	496.4501953125	0.0	983.5107421875	500.7275390625	0.0	950.361328125	598.037109375	0.0	943.9453125	708.1787109375	0.0	905.44921875	741.328125	0.0	915.0732421875	730.634765625	0.0	954.638671875	719.94140625	0.0	952.5	494.3115234375	0.0	947.1533203125	601.2451171875	0.0	946.083984375	711.38671875	0.0	908.6572265625	749.8828125	0.0	916.142578125	746.6748046875	0.0	958.916015625	725.2880859375	0.0	940.7373046875	370.2685546875	0.0	920.419921875	346.7431640625	0.0	906.5185546875	385.2392578125	0.0	978.1640625	399.140625	0.0	1015.5908203125	467.578125	0.0	1027.353515625	531.73828125	0.0	933.251953125	364.921875	0.0	938.5986328125	420.52734375	0.0	907.587890625	484.6875	0.0
29	0.24166666666666667	961.76806640625	504.44732666015625	0.0	978.80419921875	508.70635986328125	0.0	947.9262084960938	602.4050903320312	0.0	941.5376586914062	712.0751953125	0.0	907.4653930664062	739.7589111328125	0.0	918.1129760742188	734.4351196289062	0.0	951.1204833984375	721.6580200195312	0.0	947.9262084960938	504.44732666015625	0.0	942.6024169921875	607.7288818359375	0.0	941.5376586914062	715.2694702148438	0.0	909.5949096679688	753.6007690429688	0.0	915.9834594726562	752.5360107421875	0.0	953.25	728.0465698242188	0.0	936.2138671875	376.67633056640625	0.0	915.9834594726562	355.38116455078125	0.0	903.2063598632812	397.97149658203125	0.0	975.6099243164062	407.5543212890625	0.0	1012.87646484375	472.50457763671875	0.0	1025.653564453125	539.5843505859375	0.0	931.954833984375	371.3525390625	0.0	940.472900390625	421.39617919921875	0.0	912.7891845703125	488.4759521484375	0.0
30	0.25	961.51611328125	506.9033203125	0.0	975.040283203125	509.1573486328125	0.0	946.8649291992188	608.3345947265625	0.0	938.975830078125	719.9089965820312	0.0	905.1654052734375	755.9734497070312	0.0	916.435546875	748.0843505859375	0.0	949.1189575195312	730.0521240234375	0.0	946.8649291992188	505.77630615234375	0.0	938.975830078125	612.8426513671875	0.0	938.975830078125	723.2900390625	0.0	907.41943359375	766.1165771484375	0.0	913.0545043945312	763.862548828125	0.0	950.2459716796875	734.5601806640625	0.0	934.4677734375	380.677734375	0.0	914.1815185546875	361.51849365234375	0.0	902.911376953125	403.218017578125	0.0	972.7862548828125	408.85308837890625	0.0	1009.9777221679688	477.6009521484375	0.0	1023.5018920898438	544.0947875976562	0.0	928.8327026367188	378.4237060546875	0.0	940.1028442382812	425.75830078125	0.0	918.6895751953125	491.1251220703125	0.0
31	0.2583333333333333	960.101806640625	515.0654296875	0.0	977.09765625	515.0654296875	0.0	938.25	606.1146240234375	0.0	943.10595703125	722.6575927734375	0.0	901.830322265625	750.579345703125	0.0	911.542236328125	739.6534423828125	0.0	955.245849609375	615.8265380859375	0.0	944.3199462890625	510.20947265625	0.0	934.6080322265625	618.2545166015625	0.0	935.822021484375	732.3695068359375	0.0	904.25830078125	780.9290771484375	0.0	907.9002685546875	776.0731201171875	0.0	949.1759033203125	743.29541015625	0.0	935.822021484375	390.0245361328125	0.0	917.6121826171875	364.53076171875	0.0	907.9002685546875	403.37841796875	0.0	974.669677734375	420.374267578125	0.0	1008.661376953125	487.1436767578125	0.0	1020.80126953125	551.485107421875	0.0	928.5380859375	383.95458984375	0.0	940.677978515625	427.658203125	0.0	923.68212890625	494.4276123046875	0.0
32	0.26666666666666666	955.2822875976562	523.7576293945312	0.0	973.6322021484375	530.2340698242188	0.0	936.932373046875	619.8248291015625	0.0	940.1705932617188	606.8719482421875	0.0	899.1531372070312	786.053466796875	0.0	911.026611328125	778.4976196289062	0.0	950.9646606445312	617.666015625	0.0	936.932373046875	523.7576293945312	0.0	933.6941528320312	627.3806762695312	0.0	933.6941528320312	743.9566040039062	0.0	903.4707641601562	788.2122802734375	0.0	906.708984375	784.9740600585938	0.0	946.6470336914062	753.6712646484375	0.0	933.6941528320312	401.78466796875	0.0	914.2648315429688	380.196533203125	0.0	906.708984375	421.2139892578125	0.0	973.6322021484375	435.24627685546875	0.0	1007.0938110351562	495.69305419921875	0.0	1016.8084716796875	558.2986450195312	0.0	926.1383056640625	388.831787109375	0.0	941.25	429.8492431640625	0.0	929.3765258789062	500.01068115234375	0.0
33	0.275	954.7532958984375	528.7402954101562	0.0	972.7562255859375	532.1158447265625	0.0	932.2496337890625	627.7564086914062	0.0	936.7503662109375	606.3779296875	0.0	896.2437744140625	787.5324096679688	0.0	906.3704223632812	777.40576171875	0.0	949.1273803710938	749.2761840820312	0.0	935.6251831054688	526.4899291992188	0.0	928.8740844726562	634.5075073242188	0.0	931.1244506835938	749.2761840820312	0.0	900.7445068359375	796.5338745117188	0.0	905.2452392578125	794.2835083007812	0.0	944.6266479492188	758.2776489257812	0.0	932.2496337890625	408.345703125	0.0	910.8711547851562	384.71685791015625	0.0	904.1200561523438	425.22344970703125	0.0	971.6310424804688	444.3515625	0.0	1004.2613525390625	502.861083984375	0.0	1014.3880004882812	563.6209716796875	0.0	925.49853515625	397.0938720703125	0.0	941.2510986328125	433.0997314453125	0.0	933.3748168945312	501.73590087890625	0.0
34	0.2833333333333333	945.6156005859375	546.0450439453125	0.0	967.3319091796875	547.130859375	0.0	931.5	641.5968017578125	0.0	931.5	755.607421875	0.0	895.6680908203125	781.6669921875	0.0	904.3546142578125	778.4095458984375	0.0	941.2723388671875	763.2081298828125	0.0	928.2425537109375	546.0450439453125	0.0	927.15673828125	647.02587890625	0.0	927.15673828125	757.779052734375	0.0	897.8397216796875	799.0400390625	0.0	902.1829833984375	796.868408203125	0.0	941.2723388671875	769.7230224609375	0.0	927.15673828125	416.8330078125	0.0	909.78369140625	391.8592529296875	0.0	901.09716796875	426.6053466796875	0.0	971.6751708984375	453.750732421875	0.0	1003.163818359375	513.4705810546875	0.0	1010.7645263671875	575.362060546875	0.0	922.8134765625	407.0606689453125	0.0	942.358154296875	439.6351318359375	0.0	936.9290771484375	504.7840576171875	0.0
35	0.2916666666666667	942.9287109375	547.130859375	0.0	965.384765625	552.4775390625	0.0	929.02734375	647.6484375	0.0	936.5126953125	759.9287109375	0.0	894.80859375	789.8701171875	0.0	903.36328125	785.5927734375	0.0	945.0673828125	768.4833984375	0.0	922.611328125	547.130859375	0.0	922.611328125	651.92578125	0.0	923.6806640625	762.0673828125	0.0	896.947265625	809.1181640625	0.0	900.1552734375	806.9794921875	0.0	938.6513671875	771.69140625	0.0	917.2646484375	422.0185546875	0.0	903.36328125	398.4931640625	0.0	894.80859375	436.9892578125	0.0	968.5927734375	458.3759765625	0.0	999.603515625	522.5361328125	0.0	1008.158203125	582.4189453125	0.0	914.056640625	414.533203125	0.0	939.720703125	442.3359375	0.0	938.6513671875	508.634765625	0.0
36	0.3	939.076171875	558.1988525390625	0.0	960.5416259765625	561.588134765625	0.0	927.778564453125	658.74755859375	0.0	939.076171875	764.945068359375	0.0	896.145263671875	796.578369140625	0.0	907.44287109375	790.9295654296875	0.0	946.9844970703125	776.24267578125	0.0	918.740478515625	557.069091796875	0.0	916.48095703125	661.007080078125	0.0	922.1297607421875	769.464111328125	0.0	896.145263671875	811.2652587890625	0.0	898.40478515625	811.2652587890625	0.0	933.4273681640625	779.6319580078125	0.0	914.221435546875	435.054931640625	0.0	900.664306640625	405.68115234375	0.0	887.107177734375	440.7037353515625	0.0	962.8011474609375	459.90966796875	0.0	995.564208984375	532.21435546875	0.0	1004.602294921875	598.8702392578125	0.0	911.9619140625	427.1466064453125	0.0	936.816650390625	444.093017578125	0.0	941.335693359375	511.878662109375	0.0
37	0.30833333333333335	933.9298095703125	561.816650390625	0.0	955.5591430664062	563.8765869140625	0.0	925.6900634765625	665.8434448242188	0.0	942.1695556640625	776.050048828125	0.0	906.1206665039062	802.8292236328125	0.0	911.2705078125	798.7093505859375	0.0	952.46923828125	790.4696044921875	0.0	917.4503173828125	561.816650390625	0.0	907.150634765625	667.9033813476562	0.0	926.7200317382812	777.0800170898438	0.0	896.8509521484375	809.009033203125	0.0	900.9708251953125	810.0390014648438	0.0	940.109619140625	791.4995727539062	0.0	913.3304443359375	437.19049072265625	0.0	900.9708251953125	416.59112548828125	0.0	886.55126953125	452.6400146484375	0.0	960.708984375	466.02960205078125	0.0	992.6380004882812	538.1273803710938	0.0	998.8178100585938	607.13525390625	0.0	905.0906982421875	438.220458984375	0.0	935.98974609375	449.55010986328125	0.0	943.1995239257812	510.3182373046875	0.0
38	0.31666666666666665	933.2660522460938	567.0997924804688	0.0	955.3302612304688	571.5126342773438	0.0	923.337158203125	670.8015747070312	0.0	942.0917358398438	778.9161987304688	0.0	905.685791015625	806.4964599609375	0.0	912.3050537109375	799.877197265625	0.0	952.0206298828125	789.9483032226562	0.0	914.511474609375	567.0997924804688	0.0	903.4793701171875	675.2144165039062	0.0	929.9564208984375	777.81298828125	0.0	896.860107421875	809.8060913085938	0.0	902.3761596679688	812.0125122070312	0.0	944.2981567382812	791.051513671875	0.0	907.8922119140625	441.33380126953125	0.0	899.0665283203125	417.06317138671875	0.0	881.4151611328125	452.36590576171875	0.0	958.639892578125	473.326904296875	0.0	986.2201538085938	542.8291625976562	0.0	993.942626953125	609.0217895507812	0.0	891.3440551757812	440.2305908203125	0.0	931.0596313476562	449.0562744140625	0.0	945.4013671875	511.93927001953125	0.0
39	0.325	933.3850708007812	566.8212890625	0.0	955.2835693359375	572.0352172851562	0.0	920.8716430664062	674.2282104492188	0.0	941.7273559570312	779.549560546875	0.0	907.3154296875	807.7047729492188	0.0	911.486572265625	803.5336303710938	0.0	953.197998046875	791.0202026367188	0.0	913.5721435546875	567.8640747070312	0.0	897.9303588867188	677.3565673828125	0.0	929.2139282226562	781.6351318359375	0.0	896.8875732421875	810.8331298828125	0.0	901.0587158203125	812.918701171875	0.0	943.8129272460938	793.1057739257812	0.0	907.3154296875	441.68701171875	0.0	897.9303588867188	416.66015625	0.0	886.459716796875	455.24322509765625	0.0	954.2407836914062	470.885009765625	0.0	981.3532104492188	547.0083618164062	0.0	988.6527099609375	615.8322143554688	0.0	891.6736450195312	446.90093994140625	0.0	926.0855712890625	458.37158203125	0.0	949.02685546875	510.5108642578125	0.0
40	0.3333333333333333	932.4706420898438	569.2818603515625	0.0	954.369140625	574.4957885742188	0.0	918.9144287109375	676.6887817382812	0.0	940.8129272460938	784.095703125	0.0	903.2726440429688	810.1653442382812	0.0	909.5293579101562	804.951416015625	0.0	953.3263549804688	795.5663452148438	0.0	915.7860717773438	569.2818603515625	0.0	894.9303588867188	680.8599243164062	0.0	930.3850708007812	784.095703125	0.0	894.9303588867188	810.1653442382812	0.0	901.1870727539062	813.293701171875	0.0	948.1124267578125	796.609130859375	0.0	905.3582153320312	444.1475830078125	0.0	899.1015014648438	412.864013671875	0.0	888.6736450195312	443.10479736328125	0.0	951.2407836914062	474.38836669921875	0.0	976.2676391601562	549.4689331054688	0.0	983.567138671875	624.5494995117188	0.0	893.8875732421875	446.233154296875	0.0	925.171142578125	461.87493896484375	0.0	952.2835693359375	507.75750732421875	0.0
41	0.3416666666666667	934.5205078125	571.1982421875	0.0	955.3212890625	579.5185546875	0.0	917.8798828125	678.322265625	0.0	939.720703125	784.40625	0.0	902.279296875	811.447265625	0.0	907.4794921875	806.2470703125	0.0	953.2412109375	795.8466796875	0.0	917.8798828125	573.2783203125	0.0	888.7587890625	680.40234375	0.0	930.3603515625	781.2861328125	0.0	896.0390625	809.3671875	0.0	902.279296875	812.4873046875	0.0	948.041015625	792.7265625	0.0	905.3994140625	450.5537109375	0.0	899.1591796875	412.072265625	0.0	891.87890625	438.0732421875	0.0	943.880859375	474.474609375	0.0	971.9619140625	548.3173828125	0.0	976.1220703125	630.48046875	0.0	897.0791015625	454.7138671875	0.0	924.1201171875	465.1142578125	0.0	953.2412109375	505.67578125	0.0
42	0.35	936.0562133789062	571.742431640625	0.0	955.869140625	582.1702880859375	0.0	914.15771484375	677.0637817382812	0.0	940.2273559570312	780.299560546875	0.0	908.9437866210938	811.5831298828125	0.0	916.2432861328125	806.3692016601562	0.0	951.697998046875	791.7702026367188	0.0	921.4572143554688	573.8280029296875	0.0	881.8313598632812	681.2349243164062	0.0	926.671142578125	779.2567749023438	0.0	894.3447875976562	810.5403442382812	0.0	900.6015014648438	812.6259155273438	0.0	942.3129272460938	790.7274169921875	0.0	904.7726440429688	453.90765380859375	0.0	898.5159301757812	412.19622802734375	0.0	891.2164306640625	440.3514404296875	0.0	936.0562133789062	473.7205810546875	0.0	967.3397827148438	555.057861328125	0.0	973.5964965820312	635.3523559570312	0.0	897.47314453125	459.12158203125	0.0	919.3716430664062	468.50665283203125	0.0	955.869140625	502.9185791015625	0.0
43	0.35833333333333334	936.0562133789062	575.91357421875	0.0	954.8263549804688	586.3414306640625	0.0	909.986572265625	682.2777099609375	0.0	941.2701416015625	780.299560546875	0.0	908.9437866210938	814.7114868164062	0.0	918.328857421875	808.4547729492188	0.0	952.7407836914062	790.7274169921875	0.0	920.4144287109375	577.9991455078125	0.0	876.617431640625	684.36328125	0.0	925.6283569335938	777.1712036132812	0.0	894.3447875976562	810.5403442382812	0.0	900.6015014648438	811.5831298828125	0.0	941.2701416015625	787.5990600585938	0.0	905.8154296875	455.99322509765625	0.0	899.5587158203125	412.19622802734375	0.0	891.2164306640625	440.3514404296875	0.0	932.9278564453125	472.67779541015625	0.0	961.0830688476562	558.1862182617188	0.0	968.382568359375	637.4379272460938	0.0	893.302001953125	462.24993896484375	0.0	909.986572265625	473.7205810546875	0.0	953.7835693359375	501.87579345703125	0.0
44	0.36666666666666664	937.611328125	580.5377197265625	0.0	955.2608642578125	591.9580078125	0.0	905.4268798828125	680.2056884765625	0.0	940.7259521484375	775.7208251953125	0.0	906.465087890625	811.0198974609375	0.0	922.0382080078125	804.7906494140625	0.0	952.146240234375	786.1029052734375	0.0	919.9617919921875	581.575927734375	0.0	872.2042236328125	686.4349365234375	0.0	927.229248046875	776.759033203125	0.0	896.0830078125	813.0963134765625	0.0	901.2740478515625	814.134521484375	0.0	943.840576171875	787.14111328125	0.0	905.4268798828125	458.0291748046875	0.0	900.23583984375	412.3480224609375	0.0	890.8919677734375	438.30322265625	0.0	933.45849609375	474.6405029296875	0.0	955.2608642578125	566.0028076171875	0.0	963.5665283203125	646.9830322265625	0.0	888.8155517578125	465.296630859375	0.0	903.3504638671875	476.7169189453125	0.0	945.9169921875	500.595703125	0.0
45	0.375	937.0872802734375	583.01953125	0.0	954.674560546875	592.3304443359375	0.0	903.9818115234375	682.3359375	0.0	940.19091796875	772.3414306640625	0.0	905.016357421875	809.5850830078125	0.0	914.3272705078125	804.412353515625	0.0	952.60546875	782.6868896484375	0.0	918.4654541015625	584.0540771484375	0.0	867.772705078125	689.5777587890625	0.0	926.7418212890625	774.4105224609375	0.0	895.7054443359375	813.7232666015625	0.0	901.9127197265625	814.7578125	0.0	944.3291015625	782.6868896484375	0.0	905.016357421875	457.8394775390625	0.0	899.8436279296875	413.35400390625	0.0	891.5672607421875	438.18310546875	0.0	930.8800048828125	471.28857421875	0.0	943.2945556640625	541.6376953125	0.0	955.7091064453125	537.49951171875	0.0	886.39453125	465.081298828125	0.0	905.016357421875	481.634033203125	0.0	940.19091796875	501.2904052734375	0.0
46	0.3833333333333333	935.37158203125	585.42626953125	0.0	952.927734375	594.720703125	0.0	902.32470703125	681.46875	0.0	939.50244140625	769.24951171875	0.0	905.4228515625	809.525390625	0.0	914.71728515625	804.36181640625	0.0	952.927734375	780.609375	0.0	915.75	586.458984375	0.0	864.1142578125	690.76318359375	0.0	924.01171875	772.34765625	0.0	895.095703125	812.62353515625	0.0	900.25927734375	813.65625	0.0	940.53515625	782.6748046875	0.0	903.357421875	458.40234375	0.0	899.2265625	413.99560546875	0.0	889.93212890625	438.78076171875	0.0	930.2080078125	471.82763671875	0.0	941.56787109375	534.8232421875	0.0	953.96044921875	537.92138671875	0.0	882.703125	466.6640625	0.0	899.2265625	484.22021484375	0.0	938.4697265625	504.87451171875	0.0
47	0.39166666666666666	932.2150268554688	587.7141723632812	0.0	951.6800537109375	597.9589233398438	0.0	901.4807739257812	682.9903564453125	0.0	939.3863525390625	769.0462646484375	0.0	908.652099609375	810.0252685546875	0.0	930.1660766601562	804.9028930664062	0.0	951.6800537109375	780.3154907226562	0.0	912.75	588.7386474609375	0.0	859.477294921875	690.1616821289062	0.0	919.9213256835938	770.0707397460938	0.0	895.3339233398438	813.0986938476562	0.0	899.4318237304688	813.0986938476562	0.0	935.2884521484375	781.3399658203125	0.0	898.4073486328125	464.77716064453125	0.0	896.3583984375	429.94500732421875	0.0	885.0891723632812	443.26318359375	0.0	929.1416015625	480.144287109375	0.0	949.631103515625	558.00439453125	0.0	954.7534790039062	642.0113525390625	0.0	877.9178466796875	471.948486328125	0.0	893.2849731445312	487.31561279296875	0.0	935.2884521484375	508.82958984375	0.0
48	0.4	930.4178466796875	591.5423583984375	0.0	949.7958984375	599.7015380859375	0.0	899.8209228515625	685.3729248046875	0.0	939.596923828125	772.064208984375	0.0	905.9403076171875	810.8203125	0.0	925.318359375	805.7208251953125	0.0	951.835693359375	783.2830810546875	0.0	909.0	591.5423583984375	0.0	855.96533203125	689.4525146484375	0.0	917.1591796875	763.905029296875	0.0	897.7811279296875	809.8004150390625	0.0	901.8607177734375	807.7606201171875	0.0	931.437744140625	772.064208984375	0.0	892.681640625	467.1148681640625	0.0	891.6617431640625	441.617431640625	0.0	883.5025634765625	447.73681640625	0.0	929.39794921875	482.413330078125	0.0	948.7760009765625	552.7862548828125	0.0	947.756103515625	643.55712890625	0.0	876.36328125	475.2740478515625	0.0	884.5224609375	486.492919921875	0.0	927.358154296875	513.01025390625	0.0
49	0.4083333333333333	930.43359375	592.2275390625	0.0	948.7587890625	599.35400390625	0.0	897.85546875	684.87158203125	0.0	940.6142578125	772.42529296875	0.0	902.94580078125	809.07568359375	0.0	924.3251953125	806.021484375	0.0	951.81298828125	783.6240234375	0.0	909.05419921875	593.24560546875	0.0	854.07861328125	687.92578125	0.0	915.16259765625	760.20849609375	0.0	897.85546875	808.0576171875	0.0	900.90966796875	803.9853515625	0.0	930.43359375	764.28076171875	0.0	888.69287109375	471.07763671875	0.0	886.65673828125	449.6982421875	0.0	880.54833984375	448.68017578125	0.0	927.37939453125	484.3125	0.0	945.70458984375	536.23388671875	0.0	873.421875	539.2880859375	0.0	873.421875	477.18603515625	0.0	881.56640625	488.384765625	0.0	922.2890625	515.87255859375	0.0
50	0.4166666666666667	928.360107421875	593.5869140625	0.0	947.6337890625	601.7021484375	0.0	895.899169921875	685.897705078125	0.0	940.532958984375	771.107666015625	0.0	905.02880859375	809.655029296875	0.0	934.446533203125	804.5830078125	0.0	952.705810546875	782.26611328125	0.0	906.043212890625	595.61572265625	0.0	849.236572265625	686.912109375	0.0	914.158447265625	757.92041015625	0.0	894.884765625	805.597412109375	0.0	897.927978515625	802.55419921875	0.0	928.360107421875	762.992431640625	0.0	885.755126953125	480.988037109375	0.0	880.68310546875	465.77197265625	0.0	881.697509765625	446.498291015625	0.0	927.345703125	487.074462890625	0.0	949.66259765625	557.068359375	0.0	940.532958984375	643.292724609375	0.0	872.56787109375	477.94482421875	0.0	878.654296875	489.103271484375	0.0	918.216064453125	520.5498046875	0.0
51	0.425	928.0400390625	590.888671875	0.0	947.244140625	598.974609375	0.0	895.6962890625	686.9091796875	0.0	939.158203125	771.8115234375	0.0	902.771484375	806.1767578125	0.0	930.0615234375	802.1337890625	0.0	951.287109375	783.9404296875	0.0	905.8037109375	593.9208984375	0.0	847.1806640625	685.8984375	0.0	912.87890625	756.650390625	0.0	893.6748046875	801.123046875	0.0	897.7177734375	798.0908203125	0.0	927.029296875	761.7041015625	0.0	883.5673828125	484.7607421875	0.0	868.40625	486.7822265625	0.0	872.44921875	449.384765625	0.0	926.0185546875	490.8251953125	0.0	953.30859375	547.4267578125	0.0	952.2978515625	545.4052734375	0.0	871.4384765625	481.728515625	0.0	877.5029296875	493.857421875	0.0	910.857421875	522.158203125	0.0
52	0.43333333333333335	928.121337890625	591.163330078125	0.0	947.2036743164062	600.2023315429688	0.0	893.9739990234375	687.579345703125	0.0	938.1646728515625	771.943359375	0.0	896.9869995117188	807.0950317382812	0.0	930.1300048828125	803.0776977539062	0.0	949.2123413085938	784.9996948242188	0.0	905.0216674804688	593.1719970703125	0.0	845.7659912109375	683.56201171875	0.0	910.0433349609375	754.8696899414062	0.0	888.9523315429688	801.0690307617188	0.0	893.9739990234375	799.0603637695312	0.0	924.10400390625	760.8956909179688	0.0	880.9176635742188	490.72998046875	0.0	862.8396606445312	495.75164794921875	0.0	866.8569946289062	450.556640625	0.0	923.0996704101562	491.73431396484375	0.0	953.2296752929688	548.9813232421875	0.0	954.2340087890625	542.955322265625	0.0	868.8656616210938	487.71697998046875	0.0	878.9089965820312	499.76898193359375	0.0	909.0390014648438	525.8816528320312	0.0
53	0.44166666666666665	927.217529296875	591.5220336914062	0.0	945.1966552734375	601.5104370117188	0.0	892.2581176757812	686.411865234375	0.0	937.2059326171875	773.3109741210938	0.0	913.2337646484375	805.2738647460938	0.0	928.2163696289062	802.27734375	0.0	949.1920166015625	787.2947387695312	0.0	904.2442016601562	594.5185546875	0.0	844.3137817382812	681.4176635742188	0.0	908.2395629882812	754.3330078125	0.0	888.2627563476562	801.2785034179688	0.0	892.2581176757812	799.2808227539062	0.0	921.2244873046875	761.3248901367188	0.0	878.2743530273438	499.62872314453125	0.0	856.2998657226562	502.625244140625	0.0	861.2940673828125	549.5707397460938	0.0	919.226806640625	489.64031982421875	0.0	952.1885375976562	549.5707397460938	0.0	954.1862182617188	628.4791259765625	0.0	866.2882690429688	492.6368408203125	0.0	871.282470703125	497.63104248046875	0.0	902.2465209960938	529.5939331054688	0.0
54	0.45	926.467529296875	593.5197143554688	0.0	943.4478149414062	603.5081176757812	0.0	893.5057983398438	688.4095458984375	0.0	937.4547729492188	771.3132934570312	0.0	914.4814453125	801.2785034179688	0.0	929.4640502929688	798.281982421875	0.0	949.4408569335938	785.2970581054688	0.0	902.495361328125	597.5150756835938	0.0	841.5661010742188	680.4188232421875	0.0	906.49072265625	754.3330078125	0.0	882.5185546875	800.2796630859375	0.0	887.5127563476562	798.281982421875	0.0	918.476806640625	763.3225708007812	0.0	871.5313110351562	507.61944580078125	0.0	849.5568237304688	515.6101684570312	0.0	854.551025390625	551.5684204101562	0.0	910.486083984375	498.6298828125	0.0	949.4408569335938	551.5684204101562	0.0	954.43505859375	627.4802856445312	0.0	861.5429077148438	497.63104248046875	0.0	870.532470703125	500.6275634765625	0.0	900.4976806640625	535.5869750976562	0.0
55	0.4583333333333333	926.530517578125	593.87109375	0.0	943.40185546875	602.802978515625	0.0	890.802978515625	687.15966796875	0.0	937.447265625	771.516357421875	0.0	914.621337890625	796.3271484375	0.0	926.530517578125	793.349853515625	0.0	948.364013671875	784.41796875	0.0	901.7197265625	596.848388671875	0.0	840.18896484375	679.22021484375	0.0	902.712158203125	754.64501953125	0.0	878.893798828125	800.296875	0.0	884.848388671875	799.304443359375	0.0	914.621337890625	763.576904296875	0.0	869.9619140625	514.4765625	0.0	843.166259765625	523.408447265625	0.0	850.11328125	552.18896484375	0.0	910.651611328125	497.605224609375	0.0	950.348876953125	558.1435546875	0.0	952.333740234375	636.545654296875	0.0	858.052734375	500.58251953125	0.0	868.969482421875	502.5673828125	0.0	896.757568359375	540.27978515625	0.0
56	0.4666666666666667	925.40185546875	594.6796875	0.0	942.2109375	602.58984375	0.0	890.794921875	686.63525390625	0.0	935.28955078125	768.703125	0.0	911.55908203125	795.39990234375	0.0	924.4130859375	791.44482421875	0.0	946.166015625	781.55712890625	0.0	900.6826171875	596.6572265625	0.0	838.39013671875	678.72509765625	0.0	898.705078125	753.87158203125	0.0	874.974609375	798.3662109375	0.0	880.9072265625	796.388671875	0.0	910.5703125	764.748046875	0.0	864.09814453125	516.56689453125	0.0	840.36767578125	529.4208984375	0.0	843.333984375	553.1513671875	0.0	900.6826171875	509.6455078125	0.0	949.13232421875	556.11767578125	0.0	954.076171875	632.2529296875	0.0	853.2216796875	505.6904296875	0.0	868.05322265625	505.6904296875	0.0	890.794921875	545.2412109375	0.0
57	0.475	923.7890625	594.3193359375	0.0	940.411376953125	603.119384765625	0.0	889.566650390625	686.23095703125	0.0	935.5224609375	768.36474609375	0.0	910.10009765625	795.74267578125	0.0	924.766845703125	791.83154296875	0.0	946.278076171875	780.09814453125	0.0	900.322265625	596.27490234375	0.0	837.744140625	676.453125	0.0	895.433349609375	755.653564453125	0.0	870.010986328125	797.6982421875	0.0	875.877685546875	796.720458984375	0.0	908.14453125	765.431396484375	0.0	860.233154296875	525.87451171875	0.0	833.8330078125	536.630126953125	0.0	837.744140625	558.141357421875	0.0	905.211181640625	517.074462890625	0.0	947.255859375	597.252685546875	0.0	941.38916015625	658.85302734375	0.0	848.499755859375	510.22998046875	0.0	864.144287109375	507.296630859375	0.0	885.655517578125	549.34130859375	0.0
58	0.48333333333333334	925.3092041015625	593.830078125	0.0	940.7010498046875	603.2362060546875	0.0	889.3948974609375	686.18115234375	0.0	935.5704345703125	770.8363037109375	0.0	913.3377685546875	790.503662109375	0.0	927.0194091796875	785.373046875	0.0	947.5418701171875	782.8077392578125	0.0	903.0765380859375	596.3953857421875	0.0	837.233642578125	672.49951171875	0.0	891.960205078125	760.5750732421875	0.0	863.7418212890625	795.63427734375	0.0	869.7275390625	795.63427734375	0.0	905.641845703125	768.27099609375	0.0	854.335693359375	537.393310546875	0.0	825.26220703125	541.6688232421875	0.0	837.233642578125	566.466796875	0.0	900.51123046875	524.5667724609375	0.0	944.1214599609375	560.4810791015625	0.0	955.23779296875	624.61376953125	0.0	844.074462890625	516.0157470703125	0.0	860.3214111328125	505.7545166015625	0.0	882.5540771484375	551.9300537109375	0.0
59	0.49166666666666664	924.2754821777344	595.1709594726562	0.0	939.591796875	604.0382995605469	0.0	888.0	686.2627258300781	0.0	936.3673095703125	770.905517578125	0.0	915.4081420898438	791.0585632324219	0.0	926.69384765625	783.803466796875	0.0	946.8468933105469	781.3851013183594	0.0	904.1224365234375	596.783203125	0.0	835.6020812988281	672.5586547851562	0.0	887.1938781738281	762.8442993164062	0.0	858.1734924316406	795.8952941894531	0.0	863.8163452148438	795.0891723632812	0.0	900.89794921875	770.905517578125	0.0	848.5000305175781	540.3546752929688	0.0	821.8980102539062	545.19140625	0.0	833.1837158203125	570.1811828613281	0.0	897.6734619140625	532.29345703125	0.0	942.0101623535156	558.08935546875	0.0	946.040771484375	671.7525329589844	0.0	839.6326904296875	518.5893859863281	0.0	857.3673706054688	509.7220458984375	0.0	879.9387817382812	558.08935546875	0.0
60	0.5	925.2821960449219	591.5980224609375	0.0	940.3201904296875	601.8871765136719	0.0	886.5	684.9918823242188	0.0	936.3628234863281	771.2624816894531	0.0	914.9930419921875	791.04931640625	0.0	926.0736694335938	784.717529296875	0.0	947.4434509277344	781.5516357421875	0.0	904.7038879394531	593.9724426269531	0.0	835.0542297363281	672.3283081054688	0.0	882.5426330566406	765.72216796875	0.0	850.8836975097656	797.381103515625	0.0	856.4240112304688	796.5896301269531	0.0	895.2062072753906	773.6369018554688	0.0	846.1348571777344	543.3181457519531	0.0	818.4332885742188	548.0669860839844	0.0	831.0968627929688	571.8111877441406	0.0	900.7465209960938	536.9863586425781	0.0	935.5713500976562	622.4654846191406	0.0	930.0310363769531	674.7027282714844	0.0	836.6371765136719	520.3654174804688	0.0	854.0495910644531	512.45068359375	0.0	877.0023193359375	564.6879272460938	0.0
61	0.5083333333333333	922.9298400878906	590.4533386230469	0.0	937.6373291015625	601.2904357910156	0.0	885.7740783691406	684.8908996582031	0.0	936.0891723632812	770.0395202636719	0.0	911.3186645507812	791.7137145996094	0.0	920.6076049804688	785.5210876464844	0.0	947.7003479003906	780.8766174316406	0.0	901.2556457519531	593.5496520996094	0.0	833.9108276367188	670.1834106445312	0.0	876.4851379394531	765.3950500488281	0.0	846.2960815429688	794.8100280761719	0.0	850.9405517578125	795.5841064453125	0.0	889.6444702148438	774.6839904785156	0.0	841.651611328125	542.4604797363281	0.0	816.1070251464844	550.975341796875	0.0	828.4922790527344	574.1976928710938	0.0	885.7740783691406	528.5270690917969	0.0	937.6373291015625	562.5865173339844	0.0	939.1854858398438	672.5056457519531	0.0	833.9108276367188	521.5603637695312	0.0	853.2627868652344	516.9158935546875	0.0	871.8406677246094	571.1013793945312	0.0
62	0.5166666666666666	920.84765625	589.4033203125	0.0	935.7890625	600.609375	0.0	885.7353515625	685.0283203125	0.0	935.0419921875	770.1943359375	0.0	910.388671875	791.859375	0.0	919.353515625	787.376953125	0.0	948.4892578125	780.6533203125	0.0	898.435546875	591.64453125	0.0	832.693359375	669.33984375	0.0	870.7939453125	767.2060546875	0.0	841.658203125	794.1005859375	0.0	846.140625	794.84765625	0.0	884.2412109375	777.6650390625	0.0	838.669921875	542.337890625	0.0	814.763671875	551.302734375	0.0	825.22265625	575.208984375	0.0	880.505859375	527.396484375	0.0	932.80078125	574.4619140625	0.0	931.306640625	674.5693359375	0.0	829.705078125	524.408203125	0.0	849.12890625	519.1787109375	0.0	868.552734375	577.4501953125	0.0
63	0.525	919.9682006835938	588.8811950683594	0.0	934.8638305664062	600.0529174804688	0.0	885.708251953125	684.9580078125	0.0	935.6086120605469	769.8630981445312	0.0	910.2860412597656	790.7169799804688	0.0	918.4786376953125	786.9930725097656	0.0	948.2698974609375	780.2900390625	0.0	897.624755859375	591.1155395507812	0.0	832.083984375	667.8280334472656	0.0	864.8543701171875	769.8630981445312	0.0	835.8078918457031	792.9513244628906	0.0	839.5317993164062	795.1856689453125	0.0	877.5156555175781	780.2900390625	0.0	835.0631103515625	543.4495239257812	0.0	810.4853210449219	554.6212463378906	0.0	822.4018249511719	576.9646911621094	0.0	879.75	530.7882385253906	0.0	932.6294860839844	576.9646911621094	0.0	931.1399230957031	675.2758483886719	0.0	827.6152954101562	524.8299865722656	0.0	845.4900512695312	522.5956420898438	0.0	864.8543701171875	586.6468505859375	0.0
64	0.5333333333333333	917.8335571289062	585.9329223632812	0.0	934.7003173828125	598.399658203125	0.0	884.1000366210938	683.466796875	0.0	934.7003173828125	769.2672729492188	0.0	909.766845703125	791.2673950195312	0.0	917.1002197265625	787.6007080078125	0.0	947.1670532226562	780.267333984375	0.0	895.10009765625	589.599609375	0.0	832.0330810546875	667.3333740234375	0.0	859.89990234375	772.2006225585938	0.0	829.8330688476562	791.2673950195312	0.0	832.7664184570312	794.2007446289062	0.0	872.3666381835938	783.9340209960938	0.0	833.499755859375	544.1326904296875	0.0	806.3662719726562	555.1327514648438	0.0	819.5663452148438	578.5995483398438	0.0	881.9000244140625	532.3992919921875	0.0	931.0336303710938	598.399658203125	0.0	931.0336303710938	676.1334228515625	0.0	826.1663818359375	524.3325805664062	0.0	841.5664672851562	525.7992553710938	0.0	859.89990234375	590.3329467773438	0.0
65	0.5416666666666666	916.6849365234375	586.603271484375	0.0	933.404296875	598.234130859375	0.0	883.2462158203125	683.2847900390625	0.0	934.1312255859375	767.6085205078125	0.0	908.688720703125	790.143310546875	0.0	915.2310791015625	787.235595703125	0.0	946.489013671875	778.512451171875	0.0	893.4232177734375	589.510986328125	0.0	830.9073486328125	666.5654296875	0.0	855.6229248046875	772.697021484375	0.0	824.364990234375	789.4163818359375	0.0	827.272705078125	792.3240966796875	0.0	866.52685546875	784.327880859375	0.0	830.9073486328125	545.895263671875	0.0	802.55712890625	555.3453369140625	0.0	816.3687744140625	580.0609130859375	0.0	885.427001953125	534.9913330078125	0.0	929.7696533203125	601.141845703125	0.0	929.7696533203125	676.742431640625	0.0	823.6380615234375	525.541259765625	0.0	838.903564453125	529.90283203125	0.0	855.6229248046875	593.87255859375	0.0
66	0.55	914.2261962890625	586.6285400390625	0.0	931.5845947265625	598.2008056640625	0.0	881.67919921875	682.822998046875	0.0	933.75439453125	765.9986572265625	0.0	908.4400634765625	789.866455078125	0.0	915.6727294921875	787.6966552734375	0.0	946.0499267578125	777.5709228515625	0.0	890.3583984375	588.79833984375	0.0	830.3272705078125	666.9111328125	0.0	849.85546875	773.95458984375	0.0	817.3084716796875	788.419921875	0.0	820.2015380859375	792.0362548828125	0.0	860.7044677734375	786.973388671875	0.0	828.157470703125	546.1256103515625	0.0	800.67333984375	556.974609375	0.0	815.138671875	581.565673828125	0.0	876.6163330078125	535.276611328125	0.0	930.1380615234375	606.15673828125	0.0	930.1380615234375	677.036865234375	0.0	820.9248046875	526.597412109375	0.0	836.1134033203125	533.830078125	0.0	852.0252685546875	599.6473388671875	0.0
67	0.5583333333333333	914.0917053222656	586.798095703125	0.0	930.6952514648438	597.6264953613281	0.0	880.8846130371094	682.8099060058594	0.0	932.8609313964844	764.3838500976562	0.0	908.3165588378906	789.6501159667969	0.0	914.8135986328125	787.4844360351562	0.0	945.8550109863281	775.2122497558594	0.0	889.5473327636719	589.6856689453125	0.0	829.6301879882812	666.9282531738281	0.0	845.5118408203125	774.4903564453125	0.0	812.3047485351562	787.4844360351562	0.0	815.1923217773438	791.0939025878906	0.0	856.3402404785156	787.4844360351562	0.0	824.5769348144531	547.8158569335938	0.0	797.1449890136719	560.0880432128906	0.0	811.5828552246094	582.4667358398438	0.0	870.7781066894531	534.0998840332031	0.0	928.5295715332031	607.7330017089844	0.0	929.9733581542969	677.7566528320312	0.0	816.6361083984375	529.046630859375	0.0	833.2396545410156	537.7093505859375	0.0	847.6775207519531	601.9578552246094	0.0
