PathFileType	4	(X/Y/Z)	/Users/guillermo/Documents/TESIS/Procesamiento_videos/data/sports2d_raw/Cam1_rep/sujeto01_caml/sujeto01_rep09_camL_Sports2D/sujeto01_rep09_camL_Sports2D_px_person00.trc
DataRate	CameraRate	NumFrames	NumMarkers	Units	OrigDataRate	OrigDataStartFrame	OrigNumFrames
120.0	120.0	68	22	m	120.0	0	68
Frame#	Time	Hip			RHip			RKnee			RAnkle			RBigToe			RSmallToe			RHeel			LHip			LKnee			LAnkle			LBigToe			LSmallToe			LHeel			Neck			Head			Nose			RShoulder			RElbow			RWrist			LShoulder			LElbow			LWrist			
		X1	Y1	Z1	X2	Y2	Z2	X3	Y3	Z3	X4	Y4	Z4	X5	Y5	Z5	X6	Y6	Z6	X7	Y7	Z7	X8	Y8	Z8	X9	Y9	Z9	X10	Y10	Z10	X11	Y11	Z11	X12	Y12	Z12	X13	Y13	Z13	X14	Y14	Z14	X15	Y15	Z15	X16	Y16	Z16	X17	Y17	Z17	X18	Y18	Z18	X19	Y19	Z19	X20	Y20	Z20	X21	Y21	Z21	X22	Y22	Z22
0	0.0	905.8280639648438	550.1398315429688	0.0	890.1551513671875	551.9837036132812	0.0	893.8428955078125	617.441162109375	0.0	899.37451171875	677.3670043945312	0.0	899.37451171875	693.0399169921875	0.0	891.0770874023438	692.1179809570312	0.0	902.1403198242188	683.820556640625	0.0	922.4229125976562	550.1398315429688	0.0	924.2667846679688	615.5972900390625	0.0	927.9545288085938	676.445068359375	0.0	927.0325927734375	692.1179809570312	0.0	937.1738891601562	690.2741088867188	0.0	925.188720703125	683.820556640625	0.0	901.2183837890625	450.57073974609375	0.0	899.37451171875	409.0836181640625	0.0	898.4525756835938	429.3662109375	0.0	876.3261108398438	465.32171630859375	0.0	865.2628784179688	506.808837890625	0.0	857.8873901367188	544.6082153320312	0.0	927.9545288085938	464.3997802734375	0.0	938.0958251953125	504.04302978515625	0.0	948.2371215820312	541.8424072265625	0.0
1	0.008333333333333333	905.8280639648438	550.1398315429688	0.0	890.1551513671875	551.9837036132812	0.0	893.8428955078125	617.441162109375	0.0	899.37451171875	677.3670043945312	0.0	899.37451171875	693.0399169921875	0.0	891.0770874023438	692.1179809570312	0.0	902.1403198242188	683.820556640625	0.0	922.4229125976562	550.1398315429688	0.0	924.2667846679688	615.5972900390625	0.0	927.9545288085938	676.445068359375	0.0	927.0325927734375	692.1179809570312	0.0	937.1738891601562	690.2741088867188	0.0	925.188720703125	683.820556640625	0.0	901.2183837890625	450.57073974609375	0.0	899.37451171875	409.0836181640625	0.0	898.4525756835938	429.3662109375	0.0	876.3261108398438	465.32171630859375	0.0	865.2628784179688	506.808837890625	0.0	857.8873901367188	544.6082153320312	0.0	927.9545288085938	464.3997802734375	0.0	938.0958251953125	504.04302978515625	0.0	948.2371215820312	541.8424072265625	0.0
2	0.016666666666666666	905.8244018554688	549.5416259765625	0.0	890.0892333984375	551.392822265625	0.0	893.7916259765625	617.1102905273438	0.0	899.34521484375	677.274169921875	0.0	898.4196166992188	693.0093383789062	0.0	890.0892333984375	692.083740234375	0.0	902.1220092773438	683.7533569335938	0.0	922.4851684570312	550.4672241210938	0.0	924.3363647460938	615.2590942382812	0.0	928.0387573242188	677.274169921875	0.0	927.1131591796875	693.0093383789062	0.0	936.369140625	690.2325439453125	0.0	925.261962890625	683.7533569335938	0.0	901.1964111328125	450.50262451171875	0.0	899.34521484375	408.8507080078125	0.0	898.4196166992188	430.13946533203125	0.0	876.2052612304688	465.31219482421875	0.0	865.0980834960938	506.03851318359375	0.0	858.618896484375	544.9136352539062	0.0	928.0387573242188	464.3865966796875	0.0	938.2203369140625	504.18731689453125	0.0	948.4019165039062	541.2112426757812	0.0
3	0.025	905.6524658203125	549.5672607421875	0.0	889.9484252929688	552.3385620117188	0.0	893.6434936523438	617.926025390625	0.0	899.1860961914062	677.9708862304688	0.0	898.2623291015625	693.6749267578125	0.0	890.8721923828125	691.827392578125	0.0	901.9573974609375	683.5134887695312	0.0	921.3565063476562	551.414794921875	0.0	924.1278076171875	616.0784912109375	0.0	928.7466430664062	677.047119140625	0.0	926.8991088867188	692.7511596679688	0.0	937.060546875	689.9798583984375	0.0	925.975341796875	684.437255859375	0.0	901.9573974609375	450.72418212890625	0.0	899.1860961914062	409.1546630859375	0.0	898.2623291015625	429.4775390625	0.0	876.0919189453125	465.50445556640625	0.0	865.0067138671875	507.073974609375	0.0	858.5403442382812	544.9484252929688	0.0	928.7466430664062	464.5806884765625	0.0	938.9080810546875	504.30267333984375	0.0	949.0695190429688	541.2533569335938	0.0
4	0.03333333333333333	905.4841918945312	550.1398315429688	0.0	889.811279296875	551.9837036132812	0.0	894.4209594726562	617.441162109375	0.0	899.0306396484375	677.3670043945312	0.0	898.1087036132812	693.0399169921875	0.0	889.811279296875	692.1179809570312	0.0	901.7964477539062	683.820556640625	0.0	922.0790405273438	551.061767578125	0.0	923.9229125976562	615.5972900390625	0.0	928.5325927734375	677.3670043945312	0.0	927.6106567382812	692.1179809570312	0.0	936.8300170898438	690.2741088867188	0.0	925.7667846679688	684.7424926757812	0.0	901.7964477539062	450.57073974609375	0.0	899.0306396484375	409.0836181640625	0.0	898.1087036132812	430.28814697265625	0.0	875.9822387695312	465.32171630859375	0.0	865.8409423828125	506.808837890625	0.0	858.4654541015625	544.6082153320312	0.0	928.5325927734375	464.3997802734375	0.0	938.6738891601562	504.04302978515625	0.0	948.815185546875	539.99853515625	0.0
5	0.041666666666666664	905.4841918945312	550.5148315429688	0.0	889.811279296875	552.3587036132812	0.0	894.4209594726562	617.816162109375	0.0	899.0306396484375	677.7420043945312	0.0	898.1087036132812	693.4149169921875	0.0	889.811279296875	691.571044921875	0.0	901.7964477539062	683.2736206054688	0.0	922.0790405273438	551.436767578125	0.0	923.9229125976562	615.9722900390625	0.0	928.5325927734375	676.820068359375	0.0	926.688720703125	692.4929809570312	0.0	936.8300170898438	689.7271728515625	0.0	925.7667846679688	684.195556640625	0.0	900.87451171875	450.94573974609375	0.0	899.0306396484375	409.4586181640625	0.0	898.1087036132812	430.66314697265625	0.0	875.9822387695312	465.69671630859375	0.0	864.9190063476562	507.183837890625	0.0	859.3873901367188	544.9832153320312	0.0	928.5325927734375	464.7747802734375	0.0	938.6738891601562	504.41802978515625	0.0	949.7371215820312	541.2954711914062	0.0
6	0.05	905.4896850585938	550.1636352539062	0.0	889.847900390625	551.083740234375	0.0	894.4484252929688	617.331298828125	0.0	899.0489501953125	677.1381225585938	0.0	898.1288452148438	692.7799072265625	0.0	889.847900390625	691.8598022460938	0.0	901.8092651367188	683.578857421875	0.0	921.1314697265625	550.1636352539062	0.0	923.8917846679688	614.5709838867188	0.0	928.4923095703125	676.218017578125	0.0	927.5722045898438	691.8598022460938	0.0	936.7732543945312	690.0195922851562	0.0	925.7319946289062	684.4989624023438	0.0	901.8092651367188	450.79229736328125	0.0	899.0489501953125	409.3875732421875	0.0	898.1288452148438	430.54998779296875	0.0	876.0463256835938	465.51397705078125	0.0	865.9251708984375	506.918701171875	0.0	859.4844360351562	544.6430053710938	0.0	928.4923095703125	464.5938720703125	0.0	939.5335693359375	504.15838623046875	0.0	950.5748291015625	540.9625854492188	0.0
7	0.058333333333333334	905.5006713867188	549.8362426757812	0.0	889.921142578125	552.5855712890625	0.0	894.5033569335938	617.6530151367188	0.0	899.0855712890625	678.1382446289062	0.0	898.1691284179688	692.8013305664062	0.0	889.921142578125	691.8848876953125	0.0	900.91845703125	683.6369018554688	0.0	922.9130859375	550.752685546875	0.0	926.578857421875	614.9036865234375	0.0	928.4117431640625	677.2218017578125	0.0	927.4953002929688	691.8848876953125	0.0	936.6597290039062	690.052001953125	0.0	925.6624145507812	684.5533447265625	0.0	900.91845703125	450.86041259765625	0.0	899.0855712890625	409.6204833984375	0.0	898.1691284179688	430.69866943359375	0.0	876.1744995117188	465.52349853515625	0.0	865.1771850585938	506.763427734375	0.0	859.6785278320312	544.3375854492188	0.0	928.4117431640625	464.6070556640625	0.0	939.4090576171875	503.09765625	0.0	949.4899291992188	540.6718139648438	0.0
8	0.06666666666666667	906.5853881835938	549.8600463867188	0.0	890.1223754882812	551.6892700195312	0.0	894.6954345703125	616.626708984375	0.0	899.2684936523438	677.9057006835938	0.0	899.2684936523438	693.4541015625	0.0	891.0369873046875	691.6248779296875	0.0	901.0977172851562	683.3933715820312	0.0	923.0484008789062	550.774658203125	0.0	925.792236328125	613.8828735351562	0.0	928.5360717773438	676.9910888671875	0.0	927.6214599609375	692.5394897460938	0.0	936.767578125	689.795654296875	0.0	925.792236328125	684.3079833984375	0.0	902.0123291015625	451.08197021484375	0.0	899.2684936523438	409.00982666015625	0.0	898.3538818359375	430.0458984375	0.0	875.4885864257812	465.71575927734375	0.0	865.4278564453125	505.95867919921875	0.0	859.940185546875	544.3723754882812	0.0	928.5360717773438	463.88653564453125	0.0	939.5114135742188	504.12945556640625	0.0	950.4867553710938	539.79931640625	0.0
9	0.075	906.0	549.9703674316406	0.0	889.7924194335938	551.7712097167969	0.0	893.3941040039062	617.501953125	0.0	898.796630859375	677.8301696777344	0.0	899.6970520019531	694.9381713867188	0.0	891.59326171875	693.1373291015625	0.0	901.4978942871094	684.1331176757812	0.0	922.2075805664062	549.9703674316406	0.0	925.8092651367188	614.8006896972656	0.0	928.5105285644531	676.9297485351562	0.0	927.610107421875	694.0377502441406	0.0	936.6143188476562	691.3364868164062	0.0	924.9088439941406	685.0335388183594	0.0	901.4978942871094	450.9240417480469	0.0	899.6970520019531	409.5046691894531	0.0	898.796630859375	430.21435546875	0.0	876.2861022949219	465.3307800292969	0.0	865.4810485839844	506.7501525878906	0.0	860.0785217285156	543.6674194335938	0.0	928.5105285644531	464.43035888671875	0.0	939.3155822753906	503.1484680175781	0.0	951.9214782714844	540.0657348632812	0.0
10	0.08333333333333333	905.860107421875	549.47607421875	0.0	889.842041015625	551.255859375	0.0	894.29150390625	617.997802734375	0.0	899.630859375	678.510498046875	0.0	900.520751953125	695.41845703125	0.0	891.621826171875	693.638671875	0.0	902.300537109375	684.73974609375	0.0	922.76806640625	549.47607421875	0.0	926.32763671875	614.438232421875	0.0	928.997314453125	676.730712890625	0.0	927.217529296875	693.638671875	0.0	937.00634765625	690.968994140625	0.0	925.437744140625	683.849853515625	0.0	901.41064453125	450.697998046875	0.0	899.630859375	409.762939453125	0.0	897.85107421875	430.23046875	0.0	876.49365234375	465.826171875	0.0	865.81494140625	505.871337890625	0.0	860.4755859375	543.246826171875	0.0	928.107421875	464.04638671875	0.0	939.676025390625	503.20166015625	0.0	951.24462890625	540.5771484375	0.0
11	0.09166666666666666	905.8788757324219	549.156005859375	0.0	890.1986389160156	552.6405029296875	0.0	893.6831359863281	617.9748229980469	0.0	899.781005859375	678.0823974609375	0.0	899.781005859375	693.7626342773438	0.0	891.0697631835938	692.8915100097656	0.0	902.3943786621094	685.0513916015625	0.0	922.4302368164062	550.8982543945312	0.0	925.9147338867188	614.4903259277344	0.0	928.5281066894531	676.3401489257812	0.0	927.656982421875	692.8915100097656	0.0	937.2393493652344	690.2781372070312	0.0	925.9147338867188	684.1802673339844	0.0	902.3943786621094	450.7189636230469	0.0	898.9098815917969	408.9049987792969	0.0	898.0387573242188	430.68310546875	0.0	876.2606506347656	465.528076171875	0.0	865.8071594238281	506.4709167480469	0.0	860.5804138183594	543.9292602539062	0.0	928.5281066894531	463.78582763671875	0.0	938.9815979003906	502.9864196777344	0.0	950.3062133789062	538.7025146484375	0.0
12	0.1	906.7327880859375	549.9049072265625	0.0	889.8541259765625	552.20654296875	0.0	895.224609375	618.186767578125	0.0	900.5950927734375	678.7965087890625	0.0	900.5950927734375	694.907958984375	0.0	891.3885498046875	692.6063232421875	0.0	903.6639404296875	685.701416015625	0.0	922.84423828125	550.672119140625	0.0	926.6802978515625	615.117919921875	0.0	928.2147216796875	676.494873046875	0.0	926.6802978515625	694.907958984375	0.0	936.654052734375	691.839111328125	0.0	926.6802978515625	684.1669921875	0.0	902.1295166015625	450.9345703125	0.0	899.0606689453125	408.7379150390625	0.0	898.29345703125	430.2198486328125	0.0	876.0443115234375	464.744384765625	0.0	866.8377685546875	505.4066162109375	0.0	861.46728515625	543.0	0.0	928.2147216796875	463.2099609375	0.0	939.722900390625	503.8721923828125	0.0	951.2310791015625	541.465576171875	0.0
13	0.10833333333333334	906.8243408203125	549.614501953125	0.0	890.6085205078125	551.6414794921875	0.0	896.0137939453125	615.8291015625	0.0	900.0677490234375	676.638427734375	0.0	901.4190673828125	694.8812255859375	0.0	891.2841796875	691.5029296875	0.0	902.0947265625	684.0706787109375	0.0	923.0401611328125	548.9388427734375	0.0	927.769775390625	613.8021240234375	0.0	928.4454345703125	676.638427734375	0.0	926.41845703125	694.8812255859375	0.0	935.877685546875	692.1785888671875	0.0	926.41845703125	682.7193603515625	0.0	902.0947265625	450.96826171875	0.0	900.0677490234375	408.4017333984375	0.0	898.040771484375	430.0228271484375	0.0	875.7440185546875	465.1571044921875	0.0	866.96044921875	506.372314453125	0.0	861.55517578125	543.5335693359375	0.0	928.4454345703125	463.130126953125	0.0	939.2559814453125	502.9940185546875	0.0	950.7421875	541.506591796875	0.0
14	0.11666666666666667	906.1086730957031	550.4081726074219	0.0	890.0755004882812	552.3321533203125	0.0	896.48876953125	618.3888244628906	0.0	900.3367309570312	678.6735534667969	0.0	904.1846923828125	697.9133605957031	0.0	893.2821350097656	690.8587646484375	0.0	901.619384765625	684.4454956054688	0.0	922.7831726074219	550.4081726074219	0.0	927.2724609375	615.8235168457031	0.0	927.9137878417969	678.0322265625	0.0	926.6311340332031	697.9133605957031	0.0	937.53369140625	692.1414184570312	0.0	925.9898071289062	685.7281494140625	0.0	902.2607116699219	451.00250244140625	0.0	899.6954040527344	408.6749267578125	0.0	899.0540771484375	430.48004150390625	0.0	875.96630859375	465.1116943359375	0.0	866.9877319335938	506.7979431152344	0.0	861.8571166992188	543.3535766601562	0.0	928.5551147460938	462.54638671875	0.0	939.4576721191406	503.59130859375	0.0	951.6428833007812	540.7882690429688	0.0
15	0.125	906.0403747558594	548.8385009765625	0.0	889.8364562988281	551.78466796875	0.0	894.9922485351562	617.3368835449219	0.0	899.4114990234375	679.2063903808594	0.0	900.1480407714844	696.1468505859375	0.0	890.572998046875	694.6737670898438	0.0	901.6211242675781	685.0987243652344	0.0	922.9808349609375	549.5750427246094	0.0	928.1366271972656	615.1272583007812	0.0	928.1366271972656	676.9967651367188	0.0	925.927001953125	695.4103088378906	0.0	935.5020446777344	693.20068359375	0.0	925.927001953125	684.3621826171875	0.0	902.357666015625	450.8784484863281	0.0	899.4114990234375	408.89556884765625	0.0	898.6749572753906	430.2552795410156	0.0	876.5787048339844	464.87274169921875	0.0	867.003662109375	506.11907958984375	0.0	862.5844116210938	543.6827087402344	0.0	928.8731689453125	462.6631164550781	0.0	939.1847534179688	503.17291259765625	0.0	951.7059631347656	540.0	0.0
16	0.13333333333333333	906.0184020996094	549.2952575683594	0.0	889.6533508300781	551.52685546875	0.0	894.8604125976562	616.2431945800781	0.0	899.3236083984375	678.7279357910156	0.0	900.8113403320312	695.0929870605469	0.0	891.1410827636719	694.34912109375	0.0	902.299072265625	683.9349975585938	0.0	922.3834533691406	550.0391235351562	0.0	926.102783203125	614.0115966796875	0.0	928.3343811035156	676.496337890625	0.0	926.8466491699219	695.8368530273438	0.0	935.7730407714844	693.6052551269531	0.0	925.3589172363281	683.9349975585938	0.0	902.299072265625	451.84881591796875	0.0	899.3236083984375	409.4484558105469	0.0	897.8358764648438	430.2767028808594	0.0	876.2637634277344	464.4945373535156	0.0	866.593505859375	506.1510314941406	0.0	862.8741760253906	543.3443298339844	0.0	929.0782470703125	463.0068054199219	0.0	940.2362365722656	504.6632995605469	0.0	953.6258239746094	541.1127319335938	0.0
17	0.14166666666666666	905.8817138671875	548.3387145996094	0.0	889.5107116699219	551.4570007324219	0.0	894.9677124023438	616.1614379882812	0.0	898.8655700683594	676.968017578125	0.0	900.4247131347656	694.8981628417969	0.0	890.290283203125	693.3390197753906	0.0	901.2042846679688	683.20458984375	0.0	923.0322875976562	549.8978576660156	0.0	926.1505737304688	613.8227233886719	0.0	928.4892883300781	674.6293029785156	0.0	926.9301452636719	694.8981628417969	0.0	936.2850036621094	692.5594482421875	0.0	926.1505737304688	681.6454467773438	0.0	901.9838562011719	451.6718444824219	0.0	899.6451416015625	409.5749816894531	0.0	898.8655700683594	430.6234130859375	0.0	875.4784240722656	464.924560546875	0.0	866.9031372070312	506.2418518066406	0.0	862.2257080078125	542.8817138671875	0.0	929.2688598632812	463.36541748046875	0.0	940.9624328613281	504.6827087402344	0.0	954.9947204589844	541.3225708007812	0.0
18	0.15	906.037353515625	549.30029296875	0.0	889.7427978515625	552.262939453125	0.0	895.6680908203125	616.7005004882812	0.0	899.3713989257812	678.9160766601562	0.0	900.112060546875	695.9512939453125	0.0	891.22412109375	693.7293090820312	0.0	902.3340454101562	684.8413696289062	0.0	922.3319091796875	550.7816162109375	0.0	924.5538940429688	613.7378540039062	0.0	926.77587890625	676.694091796875	0.0	928.2572021484375	695.9512939453125	0.0	936.4044799804688	692.9886474609375	0.0	923.0725708007812	683.3600463867188	0.0	901.5933837890625	451.532958984375	0.0	900.112060546875	410.055908203125	0.0	897.8900756835938	430.79443359375	0.0	876.410888671875	464.8648681640625	0.0	866.7822875976562	505.60125732421875	0.0	863.0789794921875	542.6343383789062	0.0	928.9978637695312	463.383544921875	0.0	940.8484497070312	504.11993408203125	0.0	954.1803588867188	540.412353515625	0.0
19	0.15833333333333333	905.7097778320312	549.27392578125	0.0	890.2222595214844	551.2940368652344	0.0	896.2825927734375	615.2642211914062	0.0	898.97607421875	674.5208129882812	0.0	899.6494445800781	691.3550720214844	0.0	890.2222595214844	689.3349609375	0.0	900.3228149414062	680.5811462402344	0.0	921.8706665039062	549.27392578125	0.0	923.8907775878906	612.5707397460938	0.0	927.9309997558594	672.5007019042969	0.0	928.6043701171875	693.3751831054688	0.0	936.684814453125	689.3349609375	0.0	924.5641479492188	678.56103515625	0.0	901.6695556640625	451.6352233886719	0.0	900.3228149414062	409.212890625	0.0	897.6293334960938	431.4341125488281	0.0	875.4081115722656	465.1026306152344	0.0	866.654296875	506.17822265625	0.0	863.2874450683594	542.5402221679688	0.0	928.6043701171875	463.08251953125	0.0	941.3984069824219	505.5048522949219	0.0	954.8658142089844	541.1934814453125	0.0
20	0.16666666666666666	905.3527221679688	548.4146118164062	0.0	889.8180541992188	551.0037231445312	0.0	894.9962768554688	613.1423950195312	0.0	898.232666015625	670.7501220703125	0.0	898.232666015625	688.2266235351562	0.0	888.5234985351562	685.6375122070312	0.0	900.1744995117188	677.8701782226562	0.0	922.1819458007812	549.7091674804688	0.0	923.4765014648438	611.8478393554688	0.0	926.712890625	669.45556640625	0.0	928.6547241210938	690.16845703125	0.0	936.4220581054688	686.9320678710938	0.0	924.7710571289062	677.8701782226562	0.0	902.1163330078125	451.97021484375	0.0	899.5272216796875	409.2498779296875	0.0	898.232666015625	431.25732421875	0.0	876.2252197265625	464.915771484375	0.0	867.163330078125	505.69427490234375	0.0	863.2796630859375	543.2363891601562	0.0	928.6547241210938	463.6212158203125	0.0	941.6002807617188	506.341552734375	0.0	954.5458374023438	541.2945556640625	0.0
21	0.175	906.0200500488281	548.6383666992188	0.0	890.1296997070312	551.6651000976562	0.0	893.9131164550781	614.4698181152344	0.0	897.696533203125	671.2210693359375	0.0	896.1831665039062	691.6515197753906	0.0	887.1029663085938	688.6247863769531	0.0	900.7232666015625	678.7879028320312	0.0	922.6670837402344	549.3950500488281	0.0	924.1804504394531	612.1997680664062	0.0	928.7205505371094	669.7077026367188	0.0	926.4505004882812	688.6247863769531	0.0	935.5307006835938	684.8413696289062	0.0	927.2071838378906	677.2745361328125	0.0	902.2366333007812	452.5395812988281	0.0	901.4799499511719	410.9219970703125	0.0	896.9398498535156	432.109130859375	0.0	876.5093994140625	465.4031982421875	0.0	866.6725158691406	506.26409912109375	0.0	862.8890991210938	542.5848999023438	0.0	929.4772338867188	464.6465148925781	0.0	941.5841674804688	506.26409912109375	0.0	950.6643676757812	541.8282165527344	0.0
22	0.18333333333333332	906.1199340820312	548.1148681640625	0.0	889.9952087402344	550.69482421875	0.0	895.1551208496094	613.9037475585938	0.0	899.0250549316406	673.2427368164062	0.0	900.3150329589844	691.3024291992188	0.0	890.6401977539062	688.7224731445312	0.0	901.6050109863281	679.692626953125	0.0	922.2446594238281	548.7598571777344	0.0	924.8246154785156	611.9687805175781	0.0	928.049560546875	671.9527587890625	0.0	923.5346374511719	685.4975280761719	0.0	931.9194946289062	682.9175720214844	0.0	928.6945495605469	679.0476379394531	0.0	903.5399780273438	450.7215270996094	0.0	903.5399780273438	410.08721923828125	0.0	902.25	430.0818786621094	0.0	876.450439453125	464.26629638671875	0.0	867.4205932617188	505.54559326171875	0.0	864.1956481933594	542.3099670410156	0.0	929.9845275878906	463.6213073730469	0.0	941.5943298339844	504.255615234375	0.0	949.9791870117188	537.7950439453125	0.0
23	0.19166666666666665	905.6936645507812	548.905517578125	0.0	889.2453002929688	550.8034057617188	0.0	894.3063354492188	615.3316040039062	0.0	899.3673706054688	676.0640258789062	0.0	900.0	695.675537109375	0.0	890.5105590820312	692.5123901367188	0.0	901.8978881835938	683.02294921875	0.0	922.1420288085938	548.905517578125	0.0	924.0399169921875	613.4337158203125	0.0	927.835693359375	675.431396484375	0.0	927.2030639648438	691.8797607421875	0.0	932.2640991210938	688.083984375	0.0	927.835693359375	682.3903198242188	0.0	905.06103515625	450.84796142578125	0.0	904.4284057617188	410.9923095703125	0.0	904.4284057617188	434.39959716796875	0.0	877.225341796875	463.50054931640625	0.0	867.103271484375	505.25408935546875	0.0	863.3074951171875	541.9465942382812	0.0	930.3662109375	463.50054931640625	0.0	941.1209106445312	504.6214599609375	0.0	948.079833984375	536.2529296875	0.0
24	0.2	905.2553100585938	548.7420043945312	0.0	889.8085327148438	550.6728515625	0.0	893.6702270507812	614.3908081054688	0.0	898.8191528320312	674.2470703125	0.0	900.75	694.1991577148438	0.0	891.0957641601562	691.6246948242188	0.0	902.0372314453125	680.6832275390625	0.0	921.345703125	548.7420043945312	0.0	923.920166015625	613.1035766601562	0.0	929.069091796875	674.2470703125	0.0	923.2765502929688	689.69384765625	0.0	931.6435546875	687.119384765625	0.0	927.7818603515625	681.3268432617188	0.0	902.6808471679688	450.91241455078125	0.0	898.175537109375	410.3646240234375	0.0	897.5319213867188	431.60394287109375	0.0	876.2926025390625	465.07196044921875	0.0	867.281982421875	505.6197509765625	0.0	864.0639038085938	541.6622314453125	0.0	929.7127075195312	463.78472900390625	0.0	940.6541748046875	503.0452880859375	0.0	943.8722534179688	533.2952270507812	0.0
25	0.20833333333333334	905.2337036132812	548.7538146972656	0.0	889.0728149414062	550.77392578125	0.0	895.1331481933594	615.41748046875	0.0	899.1733703613281	676.0208129882812	0.0	899.8467407226562	694.2018127441406	0.0	890.4195556640625	691.5083312988281	0.0	902.5402221679688	684.1012573242188	0.0	921.3945922851562	548.7538146972656	0.0	924.0880737304688	614.0707397460938	0.0	928.1282958984375	676.6941833496094	0.0	921.3945922851562	692.8550720214844	0.0	931.4951477050781	690.1615905761719	0.0	927.4549255371094	683.4278869628906	0.0	901.1934814453125	451.1151123046875	0.0	899.1733703613281	409.36614990234375	0.0	895.8065185546875	430.91400146484375	0.0	875.6054077148438	465.2558898925781	0.0	867.5249633789062	506.33148193359375	0.0	864.1581115722656	542.0201110839844	0.0	928.8016662597656	463.9091491699219	0.0	941.595703125	501.6178894042969	0.0	942.2690734863281	535.2864074707031	0.0
26	0.21666666666666667	904.7887573242188	549.6637573242188	0.0	888.7267456054688	551.6715087890625	0.0	894.0807495117188	616.5888061523438	0.0	898.7655029296875	676.8213500976562	0.0	901.4425048828125	694.89111328125	0.0	891.4037475585938	693.5526123046875	0.0	901.4425048828125	685.5216064453125	0.0	921.52001953125	550.3330078125	0.0	924.8662719726562	615.2503051757812	0.0	930.8895263671875	678.8291015625	0.0	922.8585205078125	696.8988647460938	0.0	933.5665283203125	694.89111328125	0.0	930.2202758789062	685.5216064453125	0.0	902.1117553710938	451.95318603515625	0.0	899.4347534179688	409.7904052734375	0.0	896.7577514648438	431.87567138671875	0.0	876.010986328125	465.33819580078125	0.0	867.3107299804688	505.49322509765625	0.0	863.9644775390625	541.6327514648438	0.0	928.8817749023438	464.6689453125	0.0	940.259033203125	503.4854736328125	0.0	940.259033203125	541.6327514648438	0.0
27	0.225	905.57373046875	549.891357421875	0.0	889.88525390625	551.8524169921875	0.0	894.4610595703125	615.260009765625	0.0	898.3831787109375	674.7454833984375	0.0	904.266357421875	693.702392578125	0.0	893.1536865234375	693.0487060546875	0.0	899.6905517578125	682.5897216796875	0.0	921.9158935546875	550.5450439453125	0.0	924.5306396484375	613.2989501953125	0.0	929.1064453125	678.6676025390625	0.0	919.3011474609375	704.8150634765625	0.0	931.0675048828125	695.009765625	0.0	927.799072265625	686.5118408203125	0.0	902.3052978515625	451.83837890625	0.0	899.6905517578125	409.3487548828125	0.0	895.7684326171875	432.227783203125	0.0	876.1578369140625	464.912109375	0.0	867.659912109375	506.0943603515625	0.0	865.045166015625	541.3934326171875	0.0	927.799072265625	464.2584228515625	0.0	935.643310546875	506.0943603515625	0.0	936.95068359375	547.9302978515625	0.0
28	0.23333333333333334	905.2867126464844	550.4949645996094	0.0	889.4114685058594	551.8179016113281	0.0	894.7032165527344	615.3188781738281	0.0	898.6720275878906	675.5125122070312	0.0	901.9793701171875	694.0336303710938	0.0	891.3958740234375	692.710693359375	0.0	900.6564331054688	683.4501342773438	0.0	922.4848937988281	551.1564331054688	0.0	923.1463623046875	613.9959411621094	0.0	928.4381103515625	677.4969177246094	0.0	919.8390197753906	696.0180358886719	0.0	930.4225158691406	694.0336303710938	0.0	925.792236328125	685.4345397949219	0.0	903.3023071289062	451.9361572265625	0.0	899.9949645996094	409.6021728515625	0.0	895.3646850585938	432.7535705566406	0.0	876.8435668945312	464.5040588378906	0.0	867.5830078125	506.17657470703125	0.0	864.9371337890625	542.5573425292969	0.0	929.7610473632812	463.84259033203125	0.0	938.3601379394531	507.49951171875	0.0	938.3601379394531	549.1720275878906	0.0
29	0.24166666666666667	905.4415283203125	550.0343627929688	0.0	889.6871337890625	550.6907958984375	0.0	894.9385986328125	614.3648071289062	0.0	898.877197265625	674.1002197265625	0.0	902.8157958984375	692.4803466796875	0.0	892.3128662109375	691.8239135742188	0.0	900.1900634765625	681.9774169921875	0.0	922.5087890625	550.6907958984375	0.0	923.8216552734375	612.3955078125	0.0	929.0731201171875	675.4130859375	0.0	921.8523559570312	693.793212890625	0.0	931.6988525390625	691.8239135742188	0.0	926.4473876953125	683.290283203125	0.0	902.8157958984375	452.225830078125	0.0	899.5336303710938	409.55767822265625	0.0	894.9385986328125	432.5328369140625	0.0	877.2149047851562	464.69805908203125	0.0	867.368408203125	506.0533447265625	0.0	864.74267578125	541.500732421875	0.0	929.0731201171875	464.69805908203125	0.0	937.6067504882812	507.3662109375	0.0	938.26318359375	549.3779296875	0.0
30	0.25	907.07666015625	549.275390625	0.0	890.3994140625	551.45068359375	0.0	894.75	615.984375	0.0	899.1005859375	676.892578125	0.0	901.27587890625	695.7451171875	0.0	891.849609375	694.294921875	0.0	900.55078125	684.1435546875	0.0	924.47900390625	550.7255859375	0.0	927.37939453125	614.5341796875	0.0	928.82958984375	676.892578125	0.0	923.75390625	697.92041015625	0.0	933.9052734375	695.02001953125	0.0	925.92919921875	684.86865234375	0.0	903.451171875	452.1123046875	0.0	899.82568359375	409.33154296875	0.0	896.2001953125	433.259765625	0.0	878.07275390625	465.1640625	0.0	867.92138671875	505.04443359375	0.0	865.74609375	542.0244140625	0.0	929.5546875	462.98876953125	0.0	939.7060546875	505.04443359375	0.0	941.88134765625	544.19970703125	0.0
31	0.2583333333333333	906.6145935058594	550.0453491210938	0.0	890.2898254394531	551.5294189453125	0.0	894.0	615.3444213867188	0.0	898.4522094726562	676.1912841796875	0.0	901.4203491210938	694.7421569824219	0.0	891.0318603515625	694.0001220703125	0.0	899.936279296875	683.6116333007812	0.0	924.4234313964844	550.7873840332031	0.0	928.8756408691406	613.8603515625	0.0	928.8756408691406	670.9970397949219	0.0	921.4552917480469	682.8695983886719	0.0	932.5858154296875	680.6434936523438	0.0	922.9393615722656	677.6753540039062	0.0	902.9044189453125	451.3547058105469	0.0	897.7101745605469	410.54278564453125	0.0	896.2261047363281	433.5458679199219	0.0	877.6752319335938	464.7113342285156	0.0	867.2867431640625	505.52325439453125	0.0	865.8026733398438	543.3670349121094	0.0	928.1336059570312	461.00115966796875	0.0	939.2641296386719	503.2971496582031	0.0	938.5220947265625	542.625	0.0
32	0.26666666666666666	906.6145935058594	550.0453491210938	0.0	890.2898254394531	551.5294189453125	0.0	894.0	615.3444213867188	0.0	898.4522094726562	676.1912841796875	0.0	901.4203491210938	694.7421569824219	0.0	891.0318603515625	694.0001220703125	0.0	899.936279296875	683.6116333007812	0.0	924.4234313964844	550.7873840332031	0.0	928.8756408691406	613.8603515625	0.0	928.8756408691406	670.9970397949219	0.0	921.4552917480469	682.8695983886719	0.0	932.5858154296875	680.6434936523438	0.0	922.9393615722656	677.6753540039062	0.0	902.9044189453125	451.3547058105469	0.0	897.7101745605469	410.54278564453125	0.0	896.2261047363281	433.5458679199219	0.0	877.6752319335938	464.7113342285156	0.0	867.2867431640625	505.52325439453125	0.0	865.8026733398438	543.3670349121094	0.0	928.1336059570312	461.00115966796875	0.0	939.2641296386719	503.2971496582031	0.0	938.5220947265625	542.625	0.0
33	0.275	906.6145935058594	550.0453491210938	0.0	890.2898254394531	551.5294189453125	0.0	894.0	615.3444213867188	0.0	898.4522094726562	676.1912841796875	0.0							899.936279296875	683.6116333007812	0.0	924.4234313964844	550.7873840332031	0.0	928.8756408691406	613.8603515625	0.0	928.8756408691406	670.9970397949219	0.0				932.5858154296875	680.6434936523438	0.0	922.9393615722656	677.6753540039062	0.0	902.9044189453125	451.3547058105469	0.0	897.7101745605469	410.54278564453125	0.0	896.2261047363281	433.5458679199219	0.0	877.6752319335938	464.7113342285156	0.0	867.2867431640625	505.52325439453125	0.0	865.8026733398438	543.3670349121094	0.0	928.1336059570312	461.00115966796875	0.0	939.2641296386719	503.2971496582031	0.0	938.5220947265625	542.625	0.0
34	0.2833333333333333	906.6145935058594	550.0453491210938	0.0	890.2898254394531	551.5294189453125	0.0	894.0	615.3444213867188	0.0	898.4522094726562	676.1912841796875	0.0							899.936279296875	683.6116333007812	0.0	924.4234313964844	550.7873840332031	0.0	928.8756408691406	613.8603515625	0.0	928.8756408691406	670.9970397949219	0.0				932.5858154296875	680.6434936523438	0.0	922.9393615722656	677.6753540039062	0.0	902.9044189453125	451.3547058105469	0.0	897.7101745605469	410.54278564453125	0.0	896.2261047363281	433.5458679199219	0.0	877.6752319335938	464.7113342285156	0.0	867.2867431640625	505.52325439453125	0.0	865.8026733398438	543.3670349121094	0.0	928.1336059570312	461.00115966796875	0.0	939.2641296386719	503.2971496582031	0.0	938.5220947265625	542.625	0.0
35	0.2916666666666667	906.6145935058594	550.0453491210938	0.0	890.2898254394531	551.5294189453125	0.0	894.0	615.3444213867188	0.0	898.4522094726562	676.1912841796875	0.0							899.936279296875	683.6116333007812	0.0	924.4234313964844	550.7873840332031	0.0	928.8756408691406	613.8603515625	0.0	928.8756408691406	670.9970397949219	0.0				932.5858154296875	680.6434936523438	0.0	922.9393615722656	677.6753540039062	0.0	902.9044189453125	451.3547058105469	0.0	897.7101745605469	410.54278564453125	0.0	896.2261047363281	433.5458679199219	0.0	877.6752319335938	464.7113342285156	0.0	867.2867431640625	505.52325439453125	0.0	865.8026733398438	543.3670349121094	0.0	928.1336059570312	461.00115966796875	0.0	939.2641296386719	503.2971496582031	0.0	938.5220947265625	542.625	0.0
36	0.3	906.6145935058594	550.0453491210938	0.0	890.2898254394531	551.5294189453125	0.0	894.0	615.3444213867188	0.0	898.4522094726562	676.1912841796875	0.0							899.936279296875	683.6116333007812	0.0	924.4234313964844	550.7873840332031	0.0	928.8756408691406	613.8603515625	0.0	928.8756408691406	670.9970397949219	0.0				932.5858154296875	680.6434936523438	0.0	922.9393615722656	677.6753540039062	0.0	902.9044189453125	451.3547058105469	0.0	897.7101745605469	410.54278564453125	0.0	896.2261047363281	433.5458679199219	0.0	877.6752319335938	464.7113342285156	0.0	867.2867431640625	505.52325439453125	0.0	865.8026733398438	543.3670349121094	0.0	928.1336059570312	461.00115966796875	0.0	939.2641296386719	503.2971496582031	0.0	938.5220947265625	542.625	0.0
37	0.30833333333333335	906.6145935058594	550.0453491210938	0.0	890.2898254394531	551.5294189453125	0.0	894.0	615.3444213867188	0.0	898.4522094726562	676.1912841796875	0.0							899.936279296875	683.6116333007812	0.0	924.4234313964844	550.7873840332031	0.0	928.8756408691406	613.8603515625	0.0	928.8756408691406	670.9970397949219	0.0				932.5858154296875	680.6434936523438	0.0	922.9393615722656	677.6753540039062	0.0	902.9044189453125	451.3547058105469	0.0	897.7101745605469	410.54278564453125	0.0	896.2261047363281	433.5458679199219	0.0	877.6752319335938	464.7113342285156	0.0	867.2867431640625	505.52325439453125	0.0	865.8026733398438	543.3670349121094	0.0	928.1336059570312	461.00115966796875	0.0	939.2641296386719	503.2971496582031	0.0	938.5220947265625	542.625	0.0
38	0.31666666666666665	906.6145935058594	550.0453491210938	0.0	890.2898254394531	551.5294189453125	0.0	894.0	615.3444213867188	0.0	898.4522094726562	676.1912841796875	0.0							899.936279296875	683.6116333007812	0.0	924.4234313964844	550.7873840332031	0.0	928.8756408691406	613.8603515625	0.0	928.8756408691406	670.9970397949219	0.0				932.5858154296875	680.6434936523438	0.0	922.9393615722656	677.6753540039062	0.0	902.9044189453125	451.3547058105469	0.0	897.7101745605469	410.54278564453125	0.0	896.2261047363281	433.5458679199219	0.0	877.6752319335938	464.7113342285156	0.0	867.2867431640625	505.52325439453125	0.0	865.8026733398438	543.3670349121094	0.0	928.1336059570312	461.00115966796875	0.0	939.2641296386719	503.2971496582031	0.0	938.5220947265625	542.625	0.0
39	0.325	906.6145935058594	550.0453491210938	0.0	890.2898254394531	551.5294189453125	0.0	894.0	615.3444213867188	0.0	898.4522094726562	676.1912841796875	0.0							899.936279296875	683.6116333007812	0.0	924.4234313964844	550.7873840332031	0.0	928.8756408691406	613.8603515625	0.0	928.8756408691406	670.9970397949219	0.0				932.5858154296875	680.6434936523438	0.0	922.9393615722656	677.6753540039062	0.0	902.9044189453125	451.3547058105469	0.0	897.7101745605469	410.54278564453125	0.0	896.2261047363281	433.5458679199219	0.0	877.6752319335938	464.7113342285156	0.0	867.2867431640625	505.52325439453125	0.0	865.8026733398438	543.3670349121094	0.0	928.1336059570312	461.00115966796875	0.0	939.2641296386719	503.2971496582031	0.0	938.5220947265625	542.625	0.0
40	0.3333333333333333	906.6145935058594	550.0453491210938	0.0	890.2898254394531	551.5294189453125	0.0	894.0	615.3444213867188	0.0	898.4522094726562	676.1912841796875	0.0							899.936279296875	683.6116333007812	0.0	924.4234313964844	550.7873840332031	0.0	928.8756408691406	613.8603515625	0.0	928.8756408691406	670.9970397949219	0.0				932.5858154296875	680.6434936523438	0.0	922.9393615722656	677.6753540039062	0.0	902.9044189453125	451.3547058105469	0.0	897.7101745605469	410.54278564453125	0.0	896.2261047363281	433.5458679199219	0.0	877.6752319335938	464.7113342285156	0.0	867.2867431640625	505.52325439453125	0.0	865.8026733398438	543.3670349121094	0.0	928.1336059570312	461.00115966796875	0.0	939.2641296386719	503.2971496582031	0.0	938.5220947265625	542.625	0.0
41	0.3416666666666667	906.6145935058594	550.0453491210938	0.0	890.2898254394531	551.5294189453125	0.0	894.0	615.3444213867188	0.0	898.4522094726562	676.1912841796875	0.0							899.936279296875	683.6116333007812	0.0	924.4234313964844	550.7873840332031	0.0	928.8756408691406	613.8603515625	0.0	928.8756408691406	670.9970397949219	0.0				932.5858154296875	680.6434936523438	0.0	922.9393615722656	677.6753540039062	0.0	902.9044189453125	451.3547058105469	0.0	897.7101745605469	410.54278564453125	0.0	896.2261047363281	433.5458679199219	0.0	877.6752319335938	464.7113342285156	0.0	867.2867431640625	505.52325439453125	0.0	865.8026733398438	543.3670349121094	0.0	928.1336059570312	461.00115966796875	0.0	939.2641296386719	503.2971496582031	0.0	938.5220947265625	542.625	0.0
42	0.35	906.6145935058594	550.0453491210938	0.0	890.2898254394531	551.5294189453125	0.0	894.0	615.3444213867188	0.0	898.4522094726562	676.1912841796875	0.0							899.936279296875	683.6116333007812	0.0	924.4234313964844	550.7873840332031	0.0	928.8756408691406	613.8603515625	0.0	928.8756408691406	670.9970397949219	0.0				932.5858154296875	680.6434936523438	0.0	922.9393615722656	677.6753540039062	0.0	902.9044189453125	451.3547058105469	0.0	897.7101745605469	410.54278564453125	0.0	896.2261047363281	433.5458679199219	0.0	877.6752319335938	464.7113342285156	0.0	867.2867431640625	505.52325439453125	0.0	865.8026733398438	543.3670349121094	0.0	928.1336059570312	461.00115966796875	0.0	939.2641296386719	503.2971496582031	0.0	938.5220947265625	542.625	0.0
43	0.35833333333333334	906.6145935058594	550.0453491210938	0.0	890.2898254394531	551.5294189453125	0.0	894.0	615.3444213867188	0.0	898.4522094726562	676.1912841796875	0.0							899.936279296875	683.6116333007812	0.0	924.4234313964844	550.7873840332031	0.0	928.8756408691406	613.8603515625	0.0	928.8756408691406	670.9970397949219	0.0				932.5858154296875	680.6434936523438	0.0	922.9393615722656	677.6753540039062	0.0	902.9044189453125	451.3547058105469	0.0	897.7101745605469	410.54278564453125	0.0	896.2261047363281	433.5458679199219	0.0	877.6752319335938	464.7113342285156	0.0	867.2867431640625	505.52325439453125	0.0	865.8026733398438	543.3670349121094	0.0	928.1336059570312	461.00115966796875	0.0	939.2641296386719	503.2971496582031	0.0	938.5220947265625	542.625	0.0
44	0.36666666666666664	906.6145935058594	550.0453491210938	0.0	890.2898254394531	551.5294189453125	0.0	894.0	615.3444213867188	0.0	898.4522094726562	676.1912841796875	0.0							899.936279296875	683.6116333007812	0.0	924.4234313964844	550.7873840332031	0.0	928.8756408691406	613.8603515625	0.0	928.8756408691406	670.9970397949219	0.0				932.5858154296875	680.6434936523438	0.0	922.9393615722656	677.6753540039062	0.0	902.9044189453125	451.3547058105469	0.0	897.7101745605469	410.54278564453125	0.0	896.2261047363281	433.5458679199219	0.0	877.6752319335938	464.7113342285156	0.0	867.2867431640625	505.52325439453125	0.0	865.8026733398438	543.3670349121094	0.0	928.1336059570312	461.00115966796875	0.0	939.2641296386719	503.2971496582031	0.0	938.5220947265625	542.625	0.0
45	0.375	906.6145935058594	550.0453491210938	0.0	890.2898254394531	551.5294189453125	0.0	894.0	615.3444213867188	0.0	898.4522094726562	676.1912841796875	0.0							899.936279296875	683.6116333007812	0.0	924.4234313964844	550.7873840332031	0.0	928.8756408691406	613.8603515625	0.0	928.8756408691406	670.9970397949219	0.0				932.5858154296875	680.6434936523438	0.0	922.9393615722656	677.6753540039062	0.0	902.9044189453125	451.3547058105469	0.0	897.7101745605469	410.54278564453125	0.0	896.2261047363281	433.5458679199219	0.0	877.6752319335938	464.7113342285156	0.0	867.2867431640625	505.52325439453125	0.0	865.8026733398438	543.3670349121094	0.0	928.1336059570312	461.00115966796875	0.0	939.2641296386719	503.2971496582031	0.0	938.5220947265625	542.625	0.0
46	0.3833333333333333	906.6145935058594	550.0453491210938	0.0	890.2898254394531	551.5294189453125	0.0	894.0	615.3444213867188	0.0	898.4522094726562	676.1912841796875	0.0							899.936279296875	683.6116333007812	0.0	924.4234313964844	550.7873840332031	0.0	928.8756408691406	613.8603515625	0.0	928.8756408691406	670.9970397949219	0.0				932.5858154296875	680.6434936523438	0.0	922.9393615722656	677.6753540039062	0.0	902.9044189453125	451.3547058105469	0.0	897.7101745605469	410.54278564453125	0.0	896.2261047363281	433.5458679199219	0.0	877.6752319335938	464.7113342285156	0.0	867.2867431640625	505.52325439453125	0.0	865.8026733398438	543.3670349121094	0.0	928.1336059570312	461.00115966796875	0.0	939.2641296386719	503.2971496582031	0.0	938.5220947265625	542.625	0.0
47	0.39166666666666666	906.6145935058594	550.0453491210938	0.0	890.2898254394531	551.5294189453125	0.0	894.0	615.3444213867188	0.0	898.4522094726562	676.1912841796875	0.0							899.936279296875	683.6116333007812	0.0	924.4234313964844	550.7873840332031	0.0	928.8756408691406	613.8603515625	0.0	928.8756408691406	670.9970397949219	0.0				932.5858154296875	680.6434936523438	0.0	922.9393615722656	677.6753540039062	0.0	902.9044189453125	451.3547058105469	0.0	897.7101745605469	410.54278564453125	0.0	896.2261047363281	433.5458679199219	0.0	877.6752319335938	464.7113342285156	0.0	867.2867431640625	505.52325439453125	0.0	865.8026733398438	543.3670349121094	0.0	928.1336059570312	461.00115966796875	0.0	939.2641296386719	503.2971496582031	0.0	938.5220947265625	542.625	0.0
48	0.4	906.6145935058594	550.0453491210938	0.0	890.2898254394531	551.5294189453125	0.0	894.0	615.3444213867188	0.0	898.4522094726562	676.1912841796875	0.0							899.936279296875	683.6116333007812	0.0	924.4234313964844	550.7873840332031	0.0	928.8756408691406	613.8603515625	0.0	928.8756408691406	670.9970397949219	0.0				932.5858154296875	680.6434936523438	0.0	922.9393615722656	677.6753540039062	0.0	902.9044189453125	451.3547058105469	0.0	897.7101745605469	410.54278564453125	0.0	896.2261047363281	433.5458679199219	0.0	877.6752319335938	464.7113342285156	0.0	867.2867431640625	505.52325439453125	0.0	865.8026733398438	543.3670349121094	0.0	928.1336059570312	461.00115966796875	0.0	939.2641296386719	503.2971496582031	0.0	938.5220947265625	542.625	0.0
49	0.4083333333333333	906.6145935058594	550.0453491210938	0.0	890.2898254394531	551.5294189453125	0.0	894.0	615.3444213867188	0.0	898.4522094726562	676.1912841796875	0.0							899.936279296875	683.6116333007812	0.0	924.4234313964844	550.7873840332031	0.0	928.8756408691406	613.8603515625	0.0	928.8756408691406	670.9970397949219	0.0				932.5858154296875	680.6434936523438	0.0	922.9393615722656	677.6753540039062	0.0	902.9044189453125	451.3547058105469	0.0	897.7101745605469	410.54278564453125	0.0	896.2261047363281	433.5458679199219	0.0	877.6752319335938	464.7113342285156	0.0	867.2867431640625	505.52325439453125	0.0	865.8026733398438	543.3670349121094	0.0	928.1336059570312	461.00115966796875	0.0	939.2641296386719	503.2971496582031	0.0	938.5220947265625	542.625	0.0
50	0.4166666666666667	906.6145935058594	550.0453491210938	0.0	890.2898254394531	551.5294189453125	0.0	894.0	615.3444213867188	0.0	898.4522094726562	676.1912841796875	0.0							899.936279296875	683.6116333007812	0.0	924.4234313964844	550.7873840332031	0.0	928.8756408691406	613.8603515625	0.0	928.8756408691406	670.9970397949219	0.0				932.5858154296875	680.6434936523438	0.0	922.9393615722656	677.6753540039062	0.0	902.9044189453125	451.3547058105469	0.0	897.7101745605469	410.54278564453125	0.0	896.2261047363281	433.5458679199219	0.0	877.6752319335938	464.7113342285156	0.0	867.2867431640625	505.52325439453125	0.0	865.8026733398438	543.3670349121094	0.0	928.1336059570312	461.00115966796875	0.0	939.2641296386719	503.2971496582031	0.0	938.5220947265625	542.625	0.0
51	0.425	906.6145935058594	550.0453491210938	0.0	890.2898254394531	551.5294189453125	0.0	894.0	615.3444213867188	0.0	898.4522094726562	676.1912841796875	0.0							899.936279296875	683.6116333007812	0.0	924.4234313964844	550.7873840332031	0.0	928.8756408691406	613.8603515625	0.0	928.8756408691406	670.9970397949219	0.0				932.5858154296875	680.6434936523438	0.0	922.9393615722656	677.6753540039062	0.0	902.9044189453125	451.3547058105469	0.0	897.7101745605469	410.54278564453125	0.0	896.2261047363281	433.5458679199219	0.0	877.6752319335938	464.7113342285156	0.0	867.2867431640625	505.52325439453125	0.0	865.8026733398438	543.3670349121094	0.0	928.1336059570312	461.00115966796875	0.0	939.2641296386719	503.2971496582031	0.0	938.5220947265625	542.625	0.0
52	0.43333333333333335	906.6145935058594	550.0453491210938	0.0	890.2898254394531	551.5294189453125	0.0	894.0	615.3444213867188	0.0	898.4522094726562	676.1912841796875	0.0							899.936279296875	683.6116333007812	0.0	924.4234313964844	550.7873840332031	0.0	928.8756408691406	613.8603515625	0.0	928.8756408691406	670.9970397949219	0.0				932.5858154296875	680.6434936523438	0.0	922.9393615722656	677.6753540039062	0.0	902.9044189453125	451.3547058105469	0.0	897.7101745605469	410.54278564453125	0.0	896.2261047363281	433.5458679199219	0.0	877.6752319335938	464.7113342285156	0.0	867.2867431640625	505.52325439453125	0.0	865.8026733398438	543.3670349121094	0.0	928.1336059570312	461.00115966796875	0.0	939.2641296386719	503.2971496582031	0.0	938.5220947265625	542.625	0.0
53	0.44166666666666665	906.6145935058594	550.0453491210938	0.0	890.2898254394531	551.5294189453125	0.0	894.0	615.3444213867188	0.0	898.4522094726562	676.1912841796875	0.0							899.936279296875	683.6116333007812	0.0	924.4234313964844	550.7873840332031	0.0	928.8756408691406	613.8603515625	0.0	928.8756408691406	670.9970397949219	0.0				932.5858154296875	680.6434936523438	0.0	922.9393615722656	677.6753540039062	0.0	902.9044189453125	451.3547058105469	0.0	897.7101745605469	410.54278564453125	0.0	896.2261047363281	433.5458679199219	0.0	877.6752319335938	464.7113342285156	0.0	867.2867431640625	505.52325439453125	0.0	865.8026733398438	543.3670349121094	0.0	928.1336059570312	461.00115966796875	0.0	939.2641296386719	503.2971496582031	0.0	938.5220947265625	542.625	0.0
54	0.45	906.6145935058594	550.0453491210938	0.0	890.2898254394531	551.5294189453125	0.0	894.0	615.3444213867188	0.0	898.4522094726562	676.1912841796875	0.0							899.936279296875	683.6116333007812	0.0	924.4234313964844	550.7873840332031	0.0	928.8756408691406	613.8603515625	0.0	928.8756408691406	670.9970397949219	0.0				932.5858154296875	680.6434936523438	0.0	922.9393615722656	677.6753540039062	0.0	902.9044189453125	451.3547058105469	0.0	897.7101745605469	410.54278564453125	0.0	896.2261047363281	433.5458679199219	0.0	877.6752319335938	464.7113342285156	0.0	867.2867431640625	505.52325439453125	0.0	865.8026733398438	543.3670349121094	0.0	928.1336059570312	461.00115966796875	0.0	939.2641296386719	503.2971496582031	0.0	938.5220947265625	542.625	0.0
55	0.4583333333333333	906.6145935058594	550.0453491210938	0.0	890.2898254394531	551.5294189453125	0.0	894.0	615.3444213867188	0.0	898.4522094726562	676.1912841796875	0.0							899.936279296875	683.6116333007812	0.0	924.4234313964844	550.7873840332031	0.0	928.8756408691406	613.8603515625	0.0	928.8756408691406	670.9970397949219	0.0				932.5858154296875	680.6434936523438	0.0	922.9393615722656	677.6753540039062	0.0	902.9044189453125	451.3547058105469	0.0	897.7101745605469	410.54278564453125	0.0	896.2261047363281	433.5458679199219	0.0	877.6752319335938	464.7113342285156	0.0	867.2867431640625	505.52325439453125	0.0	865.8026733398438	543.3670349121094	0.0	928.1336059570312	461.00115966796875	0.0	939.2641296386719	503.2971496582031	0.0	938.5220947265625	542.625	0.0
56	0.4666666666666667	906.6145935058594	550.0453491210938	0.0	890.2898254394531	551.5294189453125	0.0	894.0	615.3444213867188	0.0	898.4522094726562	676.1912841796875	0.0							899.936279296875	683.6116333007812	0.0	924.4234313964844	550.7873840332031	0.0	928.8756408691406	613.8603515625	0.0	928.8756408691406	670.9970397949219	0.0				932.5858154296875	680.6434936523438	0.0	922.9393615722656	677.6753540039062	0.0	902.9044189453125	451.3547058105469	0.0	897.7101745605469	410.54278564453125	0.0	896.2261047363281	433.5458679199219	0.0	877.6752319335938	464.7113342285156	0.0	867.2867431640625	505.52325439453125	0.0	865.8026733398438	543.3670349121094	0.0	928.1336059570312	461.00115966796875	0.0	939.2641296386719	503.2971496582031	0.0	938.5220947265625	542.625	0.0
57	0.475	907.1662902832031	542.189208984375	0.0	889.5149230957031	547.7052612304688	0.0	889.5149230957031	596.7981262207031	0.0	888.4117126464844	660.7843322753906	0.0							899.936279296875	683.6116333007812	0.0	923.7144470214844	546.60205078125	0.0	935.2981567382812	591.8336791992188	0.0	952.3979187011719	624.3783874511719	0.0				975.0137329101562	627.1364135742188	0.0	950.1914978027344	630.9976501464844	0.0	906.0630798339844	452.2775573730469	0.0	902.2018432617188	412.0103759765625	0.0	893.3761596679688	435.17779541015625	0.0	879.5860290527344	463.3096618652344	0.0	870.208740234375	503.0252380371094	0.0	870.7603454589844	539.4311828613281	0.0	933.0917358398438	463.86126708984375	0.0	943.5722351074219	505.78326416015625	0.0	955.1559448242188	542.7408142089844	0.0
58	0.48333333333333334	906.42333984375	544.226806640625	0.0	888.49365234375	549.829833984375	0.0	887.373046875	604.739501953125	0.0	884.01123046875	665.252197265625	0.0							882.890625	665.252197265625	0.0	923.232421875	549.26953125	0.0	929.9560546875	603.05859375	0.0	923.792724609375	665.252197265625	0.0				974.7802734375	631.634033203125	0.0	944.52392578125	665.252197265625	0.0	905.863037109375	452.337158203125	0.0	902.501220703125	411.995361328125	0.0	893.536376953125	434.9677734375	0.0	879.52880859375	464.103515625	0.0	868.32275390625	505.005615234375	0.0	869.443359375	544.787109375	0.0	933.31787109375	464.663818359375	0.0	943.963623046875	506.6865234375	0.0	955.169677734375	543.66650390625	0.0
59	0.49166666666666664	906.129638671875	543.5447387695312	0.0	887.7453918457031	548.5586242675781	0.0	888.302490234375	604.2684631347656	0.0	885.5169982910156	664.4350891113281	0.0							887.1882934570312	664.4350891113281	0.0	922.8425903320312	548.5586242675781	0.0	927.8564758300781	604.8255615234375	0.0	924.5138854980469	664.4350891113281	0.0				970.1959533691406	664.4350891113281	0.0	926.7422790527344	664.4350891113281	0.0	906.129638671875	452.7377014160156	0.0	902.2299499511719	412.06951904296875	0.0	893.3163757324219	435.4676513671875	0.0	879.388916015625	464.436767578125	0.0	867.6898498535156	506.7762451171875	0.0	866.5756530761719	545.2160339355469	0.0	933.4274597167969	464.9938659667969	0.0	944.0123291015625	506.2191467285156	0.0	955.154296875	542.9876403808594	0.0
60	0.5	907.5420227050781	544.2983093261719	0.0	889.308837890625	548.1659545898438	0.0	889.308837890625	607.8381958007812	0.0	888.2037963867188	663.6427917480469	0.0							889.308837890625	663.6427917480469	0.0	923.5651245117188	548.7184753417969	0.0	929.6428527832031	608.3907165527344	0.0	925.2226867675781	663.6427917480469	0.0				958.3739318847656	663.6427917480469	0.0	924.670166015625	663.6427917480469	0.0	906.4369812011719	452.5798645019531	0.0	902.5693359375	412.245849609375	0.0	893.1764831542969	435.45172119140625	0.0	879.9159851074219	464.18280029296875	0.0	867.7605285644531	507.2794189453125	0.0	866.1029663085938	546.5083923339844	0.0	932.9579772949219	464.7353210449219	0.0	944.5609130859375	506.17437744140625	0.0	955.611328125	543.7457885742188	0.0
61	0.5083333333333333	907.011474609375	543.3359985351562	0.0	889.360107421875	546.0940246582031	0.0	888.8085021972656	604.5641784667969	0.0	887.7052917480469	663.0343322753906	0.0							888.8085021972656	663.0343322753906	0.0	923.0080261230469	547.1972351074219	0.0	930.1788940429688	605.6673889160156	0.0	924.662841796875	663.0343322753906	0.0				963.2752075195312	663.0343322753906	0.0	925.7660522460938	663.0343322753906	0.0	906.4598693847656	452.3211364746094	0.0	902.5986328125	412.6055603027344	0.0	893.2213439941406	435.7729797363281	0.0	879.9828186035156	464.4564514160156	0.0	868.3991088867188	506.9300537109375	0.0	865.0894775390625	546.0940246582031	0.0	933.488525390625	464.4564514160156	0.0	944.5206298828125	505.82684326171875	0.0	955.552734375	543.3359985351562	0.0
62	0.5166666666666666	907.4677734375	544.34765625	0.0	889.8896484375	547.09423828125	0.0	889.34033203125	607.51904296875	0.0	888.24169921875	662.45068359375	0.0							890.43896484375	662.45068359375	0.0	923.39794921875	547.6435546875	0.0	929.98974609375	608.61767578125	0.0	926.14453125	662.45068359375	0.0				945.37060546875	662.45068359375	0.0	925.0458984375	662.45068359375	0.0	906.91845703125	452.61181640625	0.0	902.52392578125	411.96240234375	0.0	892.0869140625	435.5830078125	0.0	880.001953125	464.1474609375	0.0	869.56494140625	506.994140625	0.0	865.7197265625	545.4462890625	0.0	933.8349609375	464.1474609375	0.0	944.27197265625	505.8955078125	0.0	955.25830078125	543.2490234375	0.0
63	0.525	908.2355346679688	543.4367065429688	0.0	890.2138366699219	546.71337890625	0.0	890.2138366699219	605.6934814453125	0.0	891.3060607910156	659.7585754394531	0.0							891.8521728515625	659.7585754394531	0.0	923.5266723632812	547.2594909667969	0.0	930.0800170898438	606.7857055664062	0.0	926.8033447265625	659.7585754394531	0.0				959.570068359375	659.7585754394531	0.0	927.3494567871094	659.7585754394531	0.0	906.5971984863281	452.2359924316406	0.0	902.7744140625	412.36981201171875	0.0	892.9443969726562	435.8526306152344	0.0	879.8377075195312	464.2504577636719	0.0	869.4615783691406	507.9394226074219	0.0	864.0004577636719	545.6211547851562	0.0	933.356689453125	464.2504577636719	0.0	944.2789306640625	505.7549743652344	0.0	955.201171875	544.5289306640625	0.0
64	0.5333333333333333	907.8603515625	544.7918701171875	0.0	890.8883056640625	548.0767822265625	0.0	891.435791015625	608.84765625	0.0	891.435791015625	660.8587646484375	0.0							891.9832763671875	660.8587646484375	0.0	923.7374267578125	548.0767822265625	0.0	929.759765625	609.942626953125	0.0	928.1173095703125	660.8587646484375	0.0				945.08935546875	660.8587646484375	0.0	926.474853515625	660.8587646484375	0.0	906.765380859375	452.266845703125	0.0	902.385498046875	412.3004150390625	0.0	892.53076171875	435.84228515625	0.0	879.9385986328125	464.3115234375	0.0	868.9888916015625	507.5628662109375	0.0	864.0615234375	545.8868408203125	0.0	933.5921630859375	464.3115234375	0.0	944.5418701171875	505.92041015625	0.0	954.944091796875	543.6968994140625	0.0
65	0.5416666666666666	908.1851806640625	543.7344360351562	0.0	891.1847534179688	547.5732421875	0.0	892.2815551757812	607.8973388671875	0.0	892.8299560546875	661.0922241210938	0.0							892.2815551757812	661.0922241210938	0.0	923.5404052734375	547.5732421875	0.0	929.5728149414062	609.5425415039062	0.0	926.830810546875	661.0922241210938	0.0				943.8312377929688	661.0922241210938	0.0	925.7340087890625	661.0922241210938	0.0	907.08837890625	452.1514892578125	0.0	902.701171875	412.11822509765625	0.0	892.8299560546875	435.699462890625	0.0	879.6683349609375	464.21630859375	0.0	869.2487182617188	506.9915771484375	0.0	862.6679077148438	543.18603515625	0.0	933.41162109375	464.76470947265625	0.0	944.379638671875	505.894775390625	0.0	955.34765625	544.2828369140625	0.0
66	0.55	908.044189453125	545.1068115234375	0.0	890.8450927734375	548.990478515625	0.0	891.9547119140625	610.01953125	0.0	890.8450927734375	662.7264404296875	0.0							891.39990234375	662.7264404296875	0.0	924.6884765625	548.990478515625	0.0	928.5721435546875	611.129150390625	0.0	929.126953125	662.7264404296875	0.0				943.552001953125	662.7264404296875	0.0	927.4625244140625	662.7264404296875	0.0	906.9345703125	452.45361328125	0.0	903.0509033203125	412.50732421875	0.0	892.509521484375	435.2545166015625	0.0	880.3037109375	464.1046142578125	0.0	868.6527099609375	506.2701416015625	0.0	862.5498046875	542.8875732421875	0.0	933.5654296875	464.1046142578125	0.0	944.1068115234375	505.71533203125	0.0	954.648193359375	543.9971923828125	0.0
67	0.5583333333333333	908.0240478515625	545.1461791992188	0.0	890.2408447265625	549.0362548828125	0.0	890.7965698242188	610.7217407226562	0.0	886.906494140625	662.9598999023438	0.0							888.5736694335938	662.9598999023438	0.0	924.1400756835938	549.0362548828125	0.0	928.0301513671875	611.2774658203125	0.0	929.1416015625	662.9598999023438	0.0				943.5904541015625	662.9598999023438	0.0	926.918701171875	662.9598999023438	0.0	906.91259765625	452.340087890625	0.0	903.0225219726562	412.327880859375	0.0	892.4637451171875	435.6683349609375	0.0	880.23779296875	464.01031494140625	0.0	869.123291015625	506.24542236328125	0.0	861.8988647460938	542.3675537109375	0.0	933.58740234375	464.5660400390625	0.0	944.1461791992188	505.689697265625	0.0	954.7049560546875	543.47900390625	0.0
